{"type": "FeatureCollection", "features": [{"type": "Feature", "properties": {"name": "Fuafatu"}, "geometry": {"type": "Polygon", "coordinates": [[[179.1746698510333, -8.345299697438037], [179.17448784705647, -8.345121603354873], [179.17432606567195, -8.344597214749513], [179.17431595433317, -8.344369649664031], [179.17427550897543, -8.344330073113879], [179.17403283674022, -8.344260814141482], [179.1739822800054, -8.344547744090049], [179.17388116651597, -8.344646685402742], [179.17370927352331, -8.3446961560497], [179.17330481912185, -8.344597214749513], [179.17305203490633, -8.34441912034604], [179.17288014154553, -8.344231131720996], [179.17262735705268, -8.343746318533537], [179.17257680013432, -8.343449493836115], [179.17268802534602, -8.343152668913165], [179.17285991879217, -8.343004256367132], [179.1731127031331, -8.34290531463846], [179.173395821399, -8.34288552628969], [179.1737193848779, -8.342944891332934], [179.17397216865766, -8.34316256308087], [179.17423506361345, -8.343508858793625], [179.1746698510333, -8.343904624946585], [179.1748518549245, -8.344280602420547], [179.17514508323598, -8.34468626192081], [179.17517541718655, -8.344933615067857], [179.17508441532766, -8.345091920999778], [179.1748619662493, -8.345279909210598], [179.17479118697028, -8.345329379777331], [179.1746698510333, -8.345299697438037]]]}}, {"type": "Feature", "properties": {"name": "Vasafua"}, "geometry": {"type": "Polygon", "coordinates": [[[179.12581892991213, -8.357469267333617], [179.12573802903066, -8.357498948747407], [179.12541442533472, -8.357459373528457], [179.12524251076067, -8.357558311568246], [179.1251211592503, -8.357528630158921], [179.12497958244, -8.357350541655734], [179.12493913191318, -8.35711309019165], [179.12499980770178, -8.357014152038962], [179.1251009339949, -8.35697457677084], [179.12551555151893, -8.35693500149871], [179.12567735335836, -8.357014152038962], [179.12580881730287, -8.357172453071213], [179.12585938034653, -8.357291178803306], [179.12581892991213, -8.357469267333617]]]}}, {"type": "Feature", "properties": {"name": "Tefala"}, "geometry": {"type": "Polygon", "coordinates": [[[179.0865294357886, -8.377197015115648], [179.08595295767623, -8.37737509454577], [179.0857506844488, -8.37735530794643], [179.08564954779507, -8.377286054840885], [179.08556863845288, -8.377018935604015], [179.0855989794582, -8.376445123289853], [179.08591250303925, -8.376237363450233], [179.0862361400152, -8.376365976697393], [179.08672159496672, -8.376900215884303], [179.0870047767378, -8.377127761981924], [179.08703511762945, -8.377216801723014], [179.0870047767378, -8.377266268237058], [179.08681261770167, -8.377206908419438], [179.0865294357886, -8.377197015115648]]]}}, {"type": "Feature", "properties": {"name": "Falaoigo"}, "geometry": {"type": "Polygon", "coordinates": [[[179.05866533407277, -8.385675484180073], [179.05851361834348, -8.385536980920003], [179.0583214449999, -8.385467729271458], [179.05802812760493, -8.385477622364874], [179.05792698362342, -8.385428156895324], [179.0578258396151, -8.385240188053649], [179.05741114890114, -8.385081898432261], [179.0572493182565, -8.384834570769817], [179.0572594326738, -8.384765318996173], [179.05738080566047, -8.384745532772829], [179.05758309388594, -8.384893929423175], [179.05833155938882, -8.384409166822298], [179.05853384711085, -8.384438846182583], [179.05888785036666, -8.384577349833961], [179.0591609383685, -8.384864250097648], [179.0593025394778, -8.385170936352242], [179.0592924251146, -8.385398477610586], [179.05912048089908, -8.385626018735726], [179.05886762161805, -8.385695270356067], [179.05866533407277, -8.385675484180073]]]}}, {"type": "Feature", "properties": {"name": "Tutanga"}, "geometry": {"type": "Polygon", "coordinates": [[[179.05572203817087, -8.385042326016881], [179.05550963449645, -8.384953288067448], [179.05529723070387, -8.384527884249849], [179.05532757411007, -8.384092586838301], [179.05560066465708, -8.38368696835703], [179.05578272491329, -8.383568250672681], [179.05597489953402, -8.383489105529689], [179.05629856183464, -8.38350889181694], [179.05659188055765, -8.38371664777244], [179.05664245272848, -8.383993655540412], [179.05662222386093, -8.384181624984878], [179.05654130838005, -8.384310235605001], [179.05659188055765, -8.384438846182583], [179.05679416920088, -8.384517991132299], [179.05689531348233, -8.384666387869473], [179.05683462691667, -8.384755425884629], [179.05666268159493, -8.384785105218464], [179.0561670740581, -8.384834570769817], [179.05602547178657, -8.384785105218464], [179.05572203817087, -8.385042326016881]]]}}, {"type": "Feature", "properties": {"name": "Avalau"}, "geometry": {"type": "Polygon", "coordinates": [[[179.05086706752832, -8.381371966974143], [179.05090752587208, -8.381550044492917], [179.05088729670075, -8.38208427655995], [179.05083672376767, -8.38218320834369], [179.05070523411027, -8.38229203327671], [179.05055351521858, -8.382311819624848], [179.05032087946753, -8.38229203327671], [179.04998709749012, -8.38181716061816], [179.04945102279427, -8.381451112548126], [179.04926895951874, -8.381451112548126], [179.04914758395347, -8.381599510455858], [179.0489655205332, -8.381698442362941], [179.04873288381418, -8.381678655983558], [179.0484193297512, -8.381757801495086], [179.04702350531218, -8.380946559238089], [179.04657845876534, -8.381045491311271], [179.04641662352867, -8.38102570489867], [179.04605249399523, -8.381144423359265], [179.0459108879717, -8.38112463695165], [179.04575916717386, -8.381174102968751], [179.04515228337914, -8.381540151299554], [179.0450410212454, -8.381648976412542], [179.04502079176302, -8.381846840176339], [179.04493987382287, -8.382074383380177], [179.04453528386472, -8.382311819624848], [179.04381713563214, -8.382212887873893], [179.04346311840018, -8.382005131114845], [179.04332151141543, -8.381836946990521], [179.0429472641311, -8.381599510455858], [179.04285623095237, -8.381500578523651], [179.04251232763656, -8.381362073776264], [179.04235049067478, -8.381371966974143], [179.0421785388276, -8.381282928184167], [179.0419964720814, -8.38110485054307], [179.0419964720814, -8.381005918485025], [179.04216842401067, -8.380471684936564], [179.042421294354, -8.380293606924017], [179.043048412082, -8.380006703287851], [179.0436451844462, -8.379828625062409], [179.04413069347746, -8.37977915887418], [179.04461620189068, -8.37980883858789], [179.04506125072663, -8.379601080544559], [179.04558721686337, -8.379472468366917], [179.04629524705615, -8.379660439996858], [179.04663914696138, -8.379887984479964], [179.04693247310624, -8.379937450654312], [179.0472156843424, -8.380115528829933], [179.04784279418877, -8.379917664185301], [179.04861150807847, -8.380313393373907], [179.04901609371422, -8.380689335730105], [179.04920827174092, -8.380798161081177], [179.0492891887759, -8.380926772820448], [179.04924873026056, -8.381005918485025], [179.049299303404, -8.381193889373796], [179.04943079354572, -8.38135218057812], [179.04984549292666, -8.381292821384069], [179.0499567536595, -8.381411539763151], [179.0499567536595, -8.381510471718018], [179.0501084727884, -8.381559937686024], [179.05033099406836, -8.381540151299554], [179.0505130568373, -8.381312607783107], [179.05074569247122, -8.381292821384069], [179.05086706752832, -8.381371966974143]]]}}, {"type": "Feature", "properties": {"name": "Motuloa"}, "geometry": {"type": "Polygon", "coordinates": [[[179.0439992015092, -8.39541016105668], [179.04387782426747, -8.395390375375516], [179.04353392187286, -8.395162839969826], [179.04339231491437, -8.394994661540808], [179.0432405931148, -8.394727554474356], [179.04086361037398, -8.391413432996925], [179.0400645362524, -8.390048204581838], [179.03972063041877, -8.389345802585957], [179.03954867738562, -8.388752222444433], [179.03947787317296, -8.38781238536575], [179.0395284476119, -8.387485915111768], [179.0396093667003, -8.387307840312152], [179.03972063041877, -8.387278161170919], [179.03988246849678, -8.387396877722137], [179.03988246849678, -8.387713455014723], [179.03997350238546, -8.387990459934164], [179.03995327263428, -8.388564255210566], [179.04001396188454, -8.388781901473036], [179.04032752285704, -8.38903911962606], [179.04082315096502, -8.389820666046203], [179.04124797454477, -8.390661568666287], [179.0424617535934, -8.39241261886824], [179.04313944521485, -8.393293087455806], [179.04370587310893, -8.394381304299932], [179.04383736517832, -8.394905625872394], [179.04396885720237, -8.3950045543916], [179.04408011964887, -8.395024340092391], [179.0441610377714, -8.395113375733581], [179.0441205787123, -8.395182625662592], [179.04422172635202, -8.395222197045056], [179.04420149682622, -8.395311232640827], [179.0439992015092, -8.39541016105668]]]}}, {"type": "Feature", "properties": {"name": "Telele"}, "geometry": {"type": "Polygon", "coordinates": [[[179.05171669184725, -8.405401801151617], [179.05137279651737, -8.405589760231676], [179.05060408818923, -8.40577771922068], [179.0500882435747, -8.406015140971196], [179.0499769828802, -8.406262455140112], [179.05018938963246, -8.40650976915126], [179.05012870200102, -8.406638372374724], [179.05020961884082, -8.406707620246577], [179.05016916042305, -8.406796653206547], [179.0496027421242, -8.40700439670029], [179.049339761914, -8.406964826519554], [179.04927907414745, -8.406875793598234], [179.04899586444262, -8.40585685982035], [179.04872276917106, -8.40460050089335], [179.0482676099508, -8.403264996783527], [179.04774164750907, -8.401969058769652], [179.04733706052215, -8.401118287948394], [179.04639639411928, -8.399396955232046], [179.04407000488234, -8.395894909929785], [179.0439992015092, -8.395588232141634], [179.0440902344151, -8.39543983957647], [179.044444251065, -8.395261768423463], [179.04450493960059, -8.395291446954666], [179.0443431034843, -8.395518982284937], [179.0443734477613, -8.395756410313524], [179.04470723464937, -8.396171909014104], [179.04488930010157, -8.396270837210585], [179.0450005622796, -8.396419229458026], [179.04501067702142, -8.396567621648789], [179.04508148020685, -8.396666549744396], [179.04562767576692, -8.397101833065715], [179.04565801994175, -8.39750743753938], [179.04577939661704, -8.39759647261102], [179.04595134684092, -8.39759647261102], [179.0460322645665, -8.397685507662219], [179.0460322645665, -8.397784435472923], [179.04611318227492, -8.397804221032056], [179.04618398525574, -8.397913041589165], [179.0462547882234, -8.398259288613351], [179.04633570588462, -8.398397787336524], [179.04692235841532, -8.399139743940472], [179.0471954549754, -8.399565131753597], [179.047387633919, -8.400119124485434], [179.0477922208523, -8.40063354559961], [179.0478529088553, -8.400861077797952], [179.04791359684864, -8.40087097049918], [179.04796417016905, -8.400940219400846], [179.04797428483235, -8.401088609862812], [179.0481158900901, -8.401177644112764], [179.04819680735665, -8.401355712551332], [179.04819680735665, -8.401563458959686], [179.04837887114368, -8.401692063823399], [179.04844967370406, -8.401820668644456], [179.0484800176545, -8.402048200146549], [179.0485609348438, -8.402196590184687], [179.04853059089984, -8.402335087502397], [179.04892506198357, -8.403106714510162], [179.04950159591095, -8.403779413725935], [179.05028042106156, -8.40450157482069], [179.05110981752665, -8.40503577531315], [179.05128176534882, -8.405025882718114], [179.05141325480758, -8.404887386361287], [179.05154474422105, -8.40446200438457], [179.05170657728314, -8.404254259528695], [179.0518785248365, -8.404135548132507], [179.051888639396, -8.404303722599725], [179.051757150101, -8.404610393499201], [179.05185829571658, -8.405124808656987], [179.05171669184725, -8.405401801151617]]]}}, {"type": "Feature", "properties": {"name": "Falefatu"}, "geometry": {"type": "Polygon", "coordinates": [[[179.1066651714476, -8.423920278776446], [179.1069483385012, -8.424296178872195], [179.106978677816, -8.42439509988935], [179.106917999184, -8.424454452487504], [179.1067764156721, -8.424424776189547], [179.10669551078473, -8.424286286769139], [179.1063820041852, -8.424137905192193], [179.10609883671412, -8.423831249752922], [179.1059572529003, -8.42379168129144], [179.10583589530407, -8.423762004942672], [179.10561340627802, -8.423860926096337], [179.1053808039767, -8.423870818210332], [179.10528978564653, -8.42396973933625], [179.1051279752285, -8.424019199889694], [179.10485491999356, -8.423999415669067], [179.104804354188, -8.423959847224786], [179.1043290352903, -8.423880710324061], [179.1037829234902, -8.423672975882686], [179.1027817165063, -8.423425672830838], [179.10252888604703, -8.423415780705469], [179.1024176405922, -8.423346535820881], [179.10233673478663, -8.423208046014494], [179.10237718769153, -8.423079448292729], [179.10243786704092, -8.42304977188933], [179.1025086596031, -8.423089340426687], [179.1024884331581, -8.423168477489238], [179.1024580934886, -8.42312890896001], [179.1024176405922, -8.423158585357328], [179.1024580934886, -8.42323772240572], [179.10290307506762, -8.423168477489238], [179.10347952771014, -8.423326751565842], [179.10343907492137, -8.423138801092708], [179.10333794293075, -8.422980526939224], [179.10317613169036, -8.422921174114984], [179.1030345467991, -8.423020095483666], [179.10295364112352, -8.423020095483666], [179.10267047112472, -8.42269365487103], [179.10259967859238, -8.4224661354933], [179.10232662155974, -8.422189155200702], [179.1019220922655, -8.421872606052158], [179.10137597704224, -8.421229614797006], [179.1012343914872, -8.42125929134002], [179.10128495776283, -8.421150477337918], [179.10124450474285, -8.421031771118948], [179.10115348543226, -8.420982310183646], [179.10109280587992, -8.42087349610371], [179.1010725793603, -8.42063608345948], [179.10128495776283, -8.420111796687529], [179.1014164300484, -8.419904060222938], [179.10165914799575, -8.419864491359931], [179.10186141283464, -8.42001287457546], [179.10204345109855, -8.42024039539542], [179.10221537604633, -8.42063608345948], [179.1021243569659, -8.420843819531118], [179.10229628187744, -8.421219722615506], [179.10295364112352, -8.422238615981795], [179.10326715052142, -8.42253538053545], [179.10371213116298, -8.42287171342115], [179.1041267717512, -8.423099232560402], [179.1046324303993, -8.423297075181463], [179.10478412786392, -8.423217938145145], [179.1048852594737, -8.423247614535631], [179.1048852594737, -8.423435564955978], [179.10517854099146, -8.423564162559364], [179.10552238800298, -8.423672975882686], [179.1057145376695, -8.423633407405022], [179.10604827107232, -8.423653191644375], [179.10642245666403, -8.423762004942672], [179.1066651714476, -8.423920278776446]]]}}, {"type": "Feature", "properties": {"name": "Motugie"}, "geometry": {"type": "Polygon", "coordinates": [[[179.03995327263428, -8.387070407119031], [179.03942729872728, -8.38705062101305], [179.03944752850634, -8.386823080722014], [179.04015557009762, -8.386476823501633], [179.04051970526112, -8.38603163519362], [179.0406916578563, -8.385606232556208], [179.04078269155175, -8.385546874011652], [179.0409141846291, -8.385606232556208], [179.04105579250782, -8.385724949618147], [179.0410355628141, -8.386209710578024], [179.04100521827147, -8.386259175948137], [179.04108613704642, -8.38640757202055], [179.0409040697786, -8.386417465090036], [179.04065119842912, -8.386536181904196], [179.04034775258836, -8.386565861102056], [179.04033763772284, -8.386615326426815], [179.04044890122879, -8.38676372236324], [179.04055004984235, -8.386773615423667], [179.04056016470224, -8.386813187662808], [179.04085349552216, -8.386684577870875], [179.04118728549096, -8.386743936241672], [179.04126820422726, -8.386694470933287], [179.04138958229953, -8.386516395771], [179.04141992681159, -8.386417465090036], [179.0413592377851, -8.38634821359838], [179.04136935262352, -8.386269069021361], [179.04147050099294, -8.386278962094398], [179.04146038615718, -8.386536181904196], [179.04120751517667, -8.386961583523728], [179.04136935262352, -8.38705062101305], [179.04147050099294, -8.387218802881723], [179.0414502713212, -8.3872979472653], [179.04114682611635, -8.387337519451084], [179.0408130361121, -8.387139658482013], [179.0404994755389, -8.387070407119031], [179.04047924581565, -8.38720890983263], [179.03995327263428, -8.387070407119031]]]}}, {"type": "Feature", "properties": {"name": "Funamanu"}, "geometry": {"type": "Polygon", "coordinates": [[[179.12049966076043, -8.441963071108828], [179.12033785674424, -8.441745454730482], [179.11989289534898, -8.441517946567439], [179.11972097830846, -8.441369571606236], [179.11965018891647, -8.44121130491815], [179.11933669288118, -8.440944229734813], [179.11896251985954, -8.440419970504367], [179.11862879766826, -8.43941101677475], [179.1186186848701, -8.438659245615268], [179.1184669928653, -8.437798663675803], [179.1184669928653, -8.437492019073078], [179.11828496238056, -8.436967755156173], [179.11805236774703, -8.435988467820662], [179.1181130446215, -8.435622470906553], [179.1180018036776, -8.43546420186328], [179.11816360867627, -8.435394959136469], [179.11826473676587, -8.435434526410445], [179.11892206870027, -8.436700677038175], [179.11896251985954, -8.43687872913737], [179.1191040988835, -8.437126023583476], [179.11930635454166, -8.437917364746982], [179.11930635454166, -8.438194333771206], [179.11949849731838, -8.43864935387972], [179.11954906119107, -8.439796793512063], [179.11969063999916, -8.440419970504367], [179.1199636846963, -8.440944229734813], [179.12024684195526, -8.44128054660217], [179.12060078823598, -8.441854262934992], [179.12062101372788, -8.44195317945796], [179.12049966076043, -8.441963071108828]]]}}, {"type": "Feature", "properties": {"name": "Fualopa"}, "geometry": {"type": "Polygon", "coordinates": [[[179.19359779782795, -8.36729369188902], [179.19360790866372, -8.366462632331515], [179.19373934950477, -8.365799762127788], [179.19403256352808, -8.365611783805068], [179.1943257773299, -8.365809655721213], [179.1946695449533, -8.365819549314397], [179.19486165025728, -8.366116356992633], [179.1949223150704, -8.366828694497908], [179.19508408785887, -8.367155182085888], [179.19507397706158, -8.367511350051613], [179.19469987737602, -8.368500703803074], [179.19452799361585, -8.368807402955799], [179.1942246691474, -8.369005273248701], [179.19387079030122, -8.368945912171393], [179.19375957116867, -8.368629319606217], [179.19359779782795, -8.36729369188902]]]}}, {"type": "Feature", "properties": {"name": "Tepuka"}, "geometry": {"type": "Polygon", "coordinates": [[[179.21987497145344, -8.386397678950809], [179.22105785746876, -8.385764521964079], [179.2217655653319, -8.385536980920003], [179.22214974906169, -8.38528965354713], [179.2229080053105, -8.384943394960723], [179.22317086713207, -8.38480489143976], [179.22324163759217, -8.384715853435965], [179.22338317847377, -8.384666387869473], [179.2246570440929, -8.384458632421525], [179.22494012477566, -8.384537777367182], [179.2250513349876, -8.384686174096839], [179.22504122496966, -8.385081898432261], [179.22491990473372, -8.385804094305977], [179.2246671541208, -8.386417465090036], [179.22450539364246, -8.387001155743759], [179.22426275279895, -8.387337519451084], [179.2240302218487, -8.387555166400693], [179.22352471930392, -8.387772813228388], [179.2229888858899, -8.387851957499118], [179.2226754735512, -8.38778270626313], [179.22210930868695, -8.387584845520731], [179.22181611584432, -8.3874166638105], [179.22171501481293, -8.387426556854312], [179.2209365359916, -8.38705062101305], [179.22004684400366, -8.386862652956092], [179.21991541206032, -8.38676372236324], [179.2198042003813, -8.38655596803635], [179.21987497145344, -8.386397678950809]]]}}, {"type": "Feature", "properties": {"name": "Mulitefala"}, "geometry": {"type": "Polygon", "coordinates": [[[179.25059851288503, -8.472477606258026], [179.25033566955076, -8.472250116238127], [179.2503558882751, -8.471923717278962], [179.2504772005989, -8.471735790479855], [179.25087146539107, -8.471409391084267], [179.251012996245, -8.471162118630476], [179.25114441770637, -8.470825827838322], [179.25130616713653, -8.470588445925692], [179.25152857249367, -8.470548882259342], [179.25163977512472, -8.470637900502885], [179.251700431092, -8.47091484601781], [179.2519430548668, -8.47119179133335], [179.2521048039663, -8.471310482121833], [179.25230699024647, -8.471201682233787], [179.25197338282806, -8.472052298720193], [179.25191272690319, -8.472240225364637], [179.25193294554586, -8.472418261048391], [179.2518419616456, -8.472685314419522], [179.25178130570035, -8.47278422302843], [179.25158922847817, -8.472843568181554], [179.2511747457296, -8.472853459039525], [179.25059851288503, -8.472477606258026]]]}}, {"type": "Feature", "properties": {"name": "Te Afualiku"}, "geometry": {"type": "Polygon", "coordinates": [[[179.24984031047856, -8.400010304546953], [179.2504569818809, -8.400425798693272], [179.2505884035293, -8.400742365363262], [179.2506086222405, -8.401157858725675], [179.25025479464315, -8.401019360987634], [179.25004249793085, -8.400851185096405], [179.24966845106178, -8.400069660880808], [179.249658341682, -8.399832235490898], [179.24972910733518, -8.399852020945593], [179.24984031047856, -8.400010304546953]]]}}, {"type": "Feature", "properties": {"name": "Paava"}, "geometry": {"type": "Polygon", "coordinates": [[[179.25809958274021, -8.42323772240572], [179.25789739945694, -8.423475133453897], [179.25771543441255, -8.423583946802255], [179.2575739059861, -8.423554270437531], [179.2575435784595, -8.423297075181463], [179.25763456103226, -8.422357321830575], [179.257695216069, -8.422169370886516], [179.25799849111166, -8.421565948817554], [179.25824111097637, -8.421427458373898], [179.2585342764453, -8.42139778184385], [179.25867580452402, -8.421486811427279], [179.2588274416944, -8.42164508619171], [179.25881733255156, -8.422060557140346], [179.25846351238673, -8.422574949125414], [179.25842307577608, -8.422703547014834], [179.25809958274021, -8.42323772240572]]]}}, {"type": "Feature", "properties": {"name": "Fatato"}, "geometry": {"type": "Polygon", "coordinates": [[[179.13480893449713, -8.463486702654095], [179.13510219320582, -8.464228534333069], [179.13512241793612, -8.46447581124176], [179.13533477754027, -8.464792325453145], [179.13617410244967, -8.465850667957687], [179.13632578747922, -8.465969360393585], [179.13631567514582, -8.466028706597779], [179.1375392655673, -8.467640941644841], [179.13795386970523, -8.468669603421677], [179.13830779971414, -8.469253169938073], [179.13880330118076, -8.46990597211098], [179.1392179039594, -8.47000488143447], [179.1394504858108, -8.470173027226151], [179.13946059806204, -8.470301609252502], [179.13938981229788, -8.470380736631956], [179.1391471181507, -8.47046975491443], [179.1388235257169, -8.470430191235879], [179.13840892251412, -8.470281827405065], [179.13814600317892, -8.470123572589163], [179.1374381425392, -8.469253169938073], [179.1354965752554, -8.466147398978768], [179.13451567556524, -8.464406573723364], [179.13445500127563, -8.463842782038395], [179.13460668698175, -8.4633976827566], [179.13474826025364, -8.46321964289982], [179.13488983347352, -8.463209751794237], [179.13498084480167, -8.46329877173519], [179.13480893449713, -8.463486702654095]]]}}, {"type": "Feature", "properties": {"name": "Fongafale"}, "geometry": {"type": "Polygon", "coordinates": [[[179.1442638874209, -8.477541697076932], [179.1445166904672, -8.478075796517063], [179.14457736317374, -8.478441753112437], [179.1446683722155, -8.478619785924735], [179.14485039023478, -8.479203337342438], [179.145022296063, -8.47954951149354], [179.14523465021563, -8.479806669232511], [179.14540655587268, -8.480271530862423], [179.14545711634548, -8.480271530862423], [179.14558857354373, -8.480864970423875], [179.14564924608163, -8.480924314329597], [179.14564924608163, -8.481270486930393], [179.14581103946946, -8.481725456160008], [179.14577059112887, -8.48186392494906], [179.1459526086282, -8.482457362051052], [179.14591216030243, -8.482714517843919], [179.1459930569497, -8.482922220474062], [179.1459526086282, -8.48308047002163], [179.14589193613796, -8.483120032398316], [179.14577059112887, -8.483110141804511], [179.14574025487065, -8.483238719503959], [179.14588182405532, -8.483614561763368], [179.14589193613796, -8.483881607355741], [179.14604361734567, -8.484297011241557], [179.14605372942404, -8.484475041340803], [179.14626608300912, -8.48498935005288], [179.1467615742531, -8.485760811829659], [179.14712560823108, -8.486492710031394], [179.14818737203902, -8.48801584505985], [179.14869297282578, -8.48858949175094], [179.1488345409274, -8.488816972097945], [179.14986596410074, -8.4899444813933], [179.15010865150575, -8.490280755454222], [179.15060413781734, -8.490656590820784], [179.15078615303742, -8.491002754648553], [179.15114007127525, -8.491319247017861], [179.15130186236166, -8.491536835370358], [179.15153443692955, -8.491704971740052], [179.15198947372255, -8.492199490047524], [179.15208048101678, -8.492387406837272], [179.15278831479554, -8.493267647416674], [179.1531118955194, -8.49349512499082], [179.15337480465794, -8.49375227339054], [179.15404218859052, -8.494543498154727], [179.15445677499827, -8.494850097312172], [179.15536684116208, -8.495730332241191], [179.15588254436994, -8.496116052528658], [179.15685327795256, -8.49651166267689], [179.15721730241728, -8.496778699296307], [179.15803635620895, -8.497233650145585], [179.15858239110565, -8.497461125367801], [179.1589261904596, -8.497678710236775], [179.15955311790592, -8.497896294982205], [179.15965423514072, -8.497827063485692], [179.1598261343792, -8.497372113340385], [179.15999803354123, -8.497203979454449], [179.16003848039173, -8.49729299152091], [179.15991713982743, -8.497599588480492], [179.16021037945936, -8.497896294982205], [179.1611204320729, -8.498341354304337], [179.16194958925553, -8.498914985557525], [179.16206081752284, -8.498796303299683], [179.16248550697625, -8.498964436487435], [179.16390113511864, -8.499617188164724], [179.16465950520592, -8.500062245489316], [179.16765252463492, -8.502069942108418], [179.16754129797587, -8.502238073860418], [179.1674199597659, -8.502178733250474], [179.16718739475706, -8.502554556958206], [179.16718739475706, -8.502623787600992], [179.1672581754267, -8.502683128142008], [179.16754129797587, -8.502732578585892], [179.16765252463492, -8.502693018231287], [179.16778397428166, -8.502435875827144], [179.16794575840098, -8.50231719465938], [179.16808731944985, -8.50208972231834], [179.1681176539536, -8.502119392631371], [179.1679760929158, -8.502435875827144], [179.16795586990617, -8.50272268849759], [179.1678648663498, -8.502930380297398], [179.16800642742825, -8.503147962062151], [179.16816821145454, -8.503276533046876], [179.1686232286657, -8.503385323846413], [179.16930069774415, -8.503662245742294], [179.16970515632997, -8.503780926493558], [179.1709084181233, -8.50400839783074], [179.1712825407755, -8.503949057494909], [179.17186900258372, -8.503593015287096], [179.17268802534602, -8.503385323846413], [179.1742451749544, -8.503316093341201], [179.17483163227413, -8.50320730252196], [179.17584276349808, -8.5027127984091], [179.17674266806674, -8.502445765922811], [179.17786501802541, -8.501921590501318], [179.1791289217431, -8.50152598593491], [179.18002881867665, -8.501140271089588], [179.1815353830213, -8.50071499529743], [179.18254649674617, -8.500358950085342], [179.18262738573017, -8.500240268274469], [179.18272849693645, -8.500260048578816], [179.18359805222147, -8.500002904542564], [179.1839519404417, -8.49995345374653], [179.18525626852048, -8.499627078333111], [179.18574159877826, -8.499439165090228], [179.18628759459202, -8.499419384743504], [179.18643925995937, -8.499379824047043], [179.18672236848636, -8.49918202050336], [179.18706614284835, -8.499063338328174], [179.1874301388994, -8.49908311869327], [179.18813790802054, -8.498954546302013], [179.18980621583782, -8.498529268085242], [179.19100941520347, -8.498123769811393], [179.19346635693898, -8.497599588480492], [179.19558962738833, -8.497213869685087], [179.19682314107672, -8.496946833368673], [179.19803642940522, -8.496897382178593], [179.1992396032531, -8.496660016377291], [179.19958336652482, -8.496669906621962], [179.1997451373709, -8.49670946759802], [179.20083708881918, -8.49670946759802], [179.20136284212515, -8.49679847977926], [179.20151450160037, -8.496749028569969], [179.2018683734789, -8.496818260261145], [179.20200992214, -8.49676880905445], [179.20406237192992, -8.496719357841405], [179.2064990100658, -8.496481991929928], [179.207489837801, -8.496294077145876], [179.20778304144244, -8.496195174590937], [179.20978490866972, -8.495849015447895], [179.2109577149836, -8.49550285599242], [179.2119182002781, -8.495166586507974], [179.2132325447312, -8.49457316905167], [179.21363695751535, -8.494325911507275], [179.21388971529194, -8.493930299104743], [179.21409192139492, -8.493712712109517], [179.21432445828341, -8.493564357269241], [179.21474909050366, -8.493198415084718], [179.21495129615988, -8.493099511731689], [179.21543658930597, -8.492664336675483], [179.21709466965407, -8.491724752484599], [179.21764062139297, -8.491467602726122], [179.2180248091945, -8.491368698927001], [179.2181865723659, -8.49125990471851], [179.21872241239072, -8.491170891252235], [179.22069389292386, -8.490528015605221], [179.22126005984668, -8.490290645863327], [179.2215229227809, -8.490063166389637], [179.22225084998018, -8.489934590975277], [179.22375725055602, -8.48944996018029], [179.2243840732396, -8.48934116542791], [179.22463682403625, -8.48920269933486], [179.22510188507346, -8.489064233191826], [179.22536474541403, -8.488905986110105], [179.2258095855862, -8.488816972097945], [179.22656783470856, -8.488540039483695], [179.22713399309075, -8.488213654360502], [179.22772037054764, -8.487986173655978], [179.23105663928277, -8.486393804950497], [179.23276520221185, -8.485513548608406], [179.23309882605176, -8.485444314877935], [179.23407947629178, -8.48502891223297], [179.23429178168897, -8.484920116227908], [179.2345849651427, -8.48465307135756], [179.23571725779047, -8.484069528216892], [179.2359295622959, -8.483901388503341], [179.23662713342833, -8.483495874773816], [179.23732470331294, -8.483001345255957], [179.2377695298342, -8.482833205074876], [179.23789084607014, -8.482872767477057], [179.23791106543914, -8.482932111072664], [179.23761788448624, -8.483584890019392], [179.2374561293834, -8.483822263906797], [179.23713261897643, -8.484099199923389], [179.23395815887002, -8.485770702355184], [179.2314509237004, -8.486957563570305], [179.2289740021501, -8.488065297394574], [179.22631508516517, -8.4893510558612], [179.22493001475482, -8.489845577201674], [179.2230192161028, -8.490636810021174], [179.22190710675017, -8.491032425819254], [179.21900549738905, -8.49187310803607], [179.21718566166373, -8.492525871781352], [179.21599265362494, -8.493148963411372], [179.21419302440702, -8.494256679366291], [179.21331342732165, -8.4948797681854], [179.21221140057952, -8.495522636541121], [179.21117003298986, -8.496086381751063], [179.21016910423117, -8.496501772428148], [179.20819757035102, -8.497154528297523], [179.20714608152602, -8.497421564469285], [179.20615525291436, -8.49758969825984], [179.20490154778486, -8.497698490673267], [179.20431513593243, -8.497668820018097], [179.2039915979798, -8.497718271108742], [179.20008890019503, -8.497599588480492], [179.19787465784717, -8.497658929799227], [179.19565029208758, -8.49781717327087], [179.1937292386724, -8.498163330637482], [179.19011965468755, -8.499261141933077], [179.1879761323353, -8.499676529171168], [179.1844574944815, -8.500467741712967], [179.18082760184402, -8.501713898154863], [179.17843124740085, -8.502663347962734], [179.1763281055477, -8.50342488412953], [179.1720307849951, -8.505175422567385], [179.1687647894667, -8.506609473520058], [179.16683349121445, -8.507321551998455], [179.1657414439562, -8.507618250973819], [179.16495274124097, -8.507717150581172], [179.16414381370836, -8.507618250973819], [179.16303153558803, -8.507173202424644], [179.16256640015257, -8.506876503104598], [179.16201025922348, -8.506431453693622], [179.16134288905255, -8.505729263571586], [179.15806669150126, -8.501239172368972], [179.15572075520237, -8.498351244505637], [179.15421409032578, -8.496402869926795], [179.15204003333312, -8.49388084752577], [179.15142320563194, -8.493247866751654], [179.15040189858328, -8.49195223097346], [179.14951204469497, -8.49094341230026], [179.14790423530914, -8.488777410308137], [179.14712560823108, -8.487877378488763], [179.1465896691997, -8.487145482926303], [179.14596272070898, -8.486008074891691], [179.14523465021563, -8.48393106022284], [179.1449413992122, -8.481646331115323], [179.14462792375514, -8.479974810738025], [179.14400097207698, -8.477937326363133], [179.144162766156, -8.477244974845098], [179.14421332679177, -8.477185630371226], [179.14427399954593, -8.477284537822579], [179.1442638874209, -8.477541697076932]]]}}, {"type": "Feature", "properties": {"name": "Funangongo"}, "geometry": {"type": "Polygon", "coordinates": [[[179.12410989517699, -8.447314417079555], [179.1238469660827, -8.446750600391546], [179.12335144537846, -8.445909819589582], [179.12334133270437, -8.445702096991585], [179.12342223408953, -8.445504265841898], [179.1235031354577, -8.445444916477221], [179.12354358613544, -8.445533940520813], [179.1235031354577, -8.44562296454388], [179.1235739241409, -8.445801012528417], [179.12380651543688, -8.446097758986637], [179.12400876862347, -8.446641793567448], [179.12424135965674, -8.447037454598929], [179.1243020355553, -8.447304525565807], [179.12440316203177, -8.447264959508265], [179.12429192290622, -8.447086912199303], [179.12426158495728, -8.44645385443532], [179.12440316203177, -8.446295589832049], [179.12449417583778, -8.446305481371663], [179.12456496433873, -8.446374722141808], [179.12508070873844, -8.447096803718663], [179.12529307387862, -8.447571596347766], [179.12594028120247, -8.448511288370206], [179.1259605064138, -8.4489761877876], [179.12609197026163, -8.449263040340051], [179.12655714967036, -8.449945550727884], [179.1267189510721, -8.450074139506313], [179.126627937792, -8.450232402559394], [179.12661782520397, -8.450588494191347], [179.12690097756777, -8.450994042593933], [179.12707289140135, -8.451073173939843], [179.12773020829255, -8.45239862156967], [179.12804369749165, -8.453160257325484], [179.1282560609977, -8.453437215409082], [179.12843808676675, -8.453981239636933], [179.12872123779215, -8.454475806450574], [179.1288931508131, -8.454930807358652], [179.12898416355787, -8.455039611844027], [179.12962125216887, -8.455316568577404], [179.12982350230126, -8.455504503390273], [179.12980327729278, -8.455534177299699], [179.1297021522346, -8.455553959904755], [179.12962125216887, -8.455494612086607], [179.12934821432177, -8.455613307713719], [179.12915607646147, -8.455613307713719], [179.12886281322673, -8.455553959904755], [179.1284684243866, -8.45537591642293], [179.12805381004222, -8.455069285789289], [179.1273964937034, -8.454436241128809], [179.1267594014119, -8.453664716543251], [179.12637512301214, -8.453081126407906], [179.12576836686318, -8.451894160695353], [179.1256166776766, -8.451478721832725], [179.12550543890168, -8.450865454122237], [179.1246155275457, -8.448194760786777], [179.12459530226374, -8.448056279887304], [179.1246256401863, -8.44796725642568], [179.12471665393977, -8.44792769043615], [179.1247267665777, -8.447828775444583], [179.12466609074608, -8.44763094538534], [179.1246155275457, -8.447541921825575], [179.12454473905407, -8.447611162373832], [179.12427169760724, -8.447532030317653], [179.12410989517699, -8.447314417079555]]]}}, {"type": "Feature", "properties": {"name": "Amatuku"}, "geometry": {"type": "Polygon", "coordinates": [[[179.24789930561042, -8.474495337936194], [179.24841488596948, -8.474109595933834], [179.24838455773192, -8.473961233522186], [179.248485651848, -8.473713962708949], [179.24861707415977, -8.473624945177253], [179.2487687152338, -8.473209529756952], [179.24885969984996, -8.473130402959312], [179.24885969984996, -8.47295236760519], [179.24933484138984, -8.47288313161192], [179.2495471384868, -8.47278422302843], [179.24967856044134, -8.47280400474717], [179.24978976359913, -8.473031494439434], [179.24970888857843, -8.473209529756952], [179.2496179041601, -8.473348001613573], [179.24943593525992, -8.473496364261779], [179.2493651695536, -8.473298547384779], [179.2493045132237, -8.473328219922836], [179.24928429444498, -8.473456800894516], [179.24935506016593, -8.473605163500752], [179.2490214502263, -8.473971124351428], [179.24894057504648, -8.47400079683753], [179.24877882463664, -8.474218394999326], [179.24867773059646, -8.474861297939736], [179.24847554243757, -8.474940424381233], [179.24834412007817, -8.475266820780114], [179.24836433890553, -8.47548441822546], [179.24820258825702, -8.475553653750426], [179.24826324475805, -8.47585037728766], [179.248354229492, -8.475919612746763], [179.248485651848, -8.475929503525574], [179.24889002805062, -8.476394369844437], [179.24885969984996, -8.476532840554214], [179.24748481894576, -8.477225193354826], [179.24588752475708, -8.477739511770928], [179.24511920370554, -8.478075796517063], [179.24467438556346, -8.47835273667536], [179.24365332381996, -8.478857162879503], [179.24347135213966, -8.47902530480045], [179.24329948991928, -8.479104430384824], [179.24273335501087, -8.47957918354912], [179.2424705063814, -8.479727543792686], [179.2424603968152, -8.479598964918251], [179.242177328855, -8.479331916349235], [179.242177328855, -8.479223118730882], [179.2425817115924, -8.479015414101253], [179.2428243410337, -8.478797818654556], [179.2429456556978, -8.47876814653862], [179.2432590517388, -8.478956069900706], [179.24338036626773, -8.47896596060144], [179.24349157121947, -8.478896725691047], [179.24347135213966, -8.47877803724419], [179.24336014718222, -8.47871869300704], [179.24336014718222, -8.478471425253549], [179.2434814616797, -8.478441753112437], [179.2436027761395, -8.47848131596674], [179.24388584306575, -8.47837251810762], [179.2444216477569, -8.478046124345456], [179.2449372327087, -8.477591150759968], [179.24492712320637, -8.477472461909983], [179.24560445928248, -8.477106504391866], [179.2460088384691, -8.476621857412727], [179.24640310777272, -8.476295462164137], [179.2465850780863, -8.476077865177784], [179.24667606321125, -8.475929503525574], [179.24667606321125, -8.475830595725647], [179.2466052970048, -8.475820704944239], [179.24663562538055, -8.475741578683921], [179.24675693886013, -8.475771251033448], [179.24733317737315, -8.475128349614412], [179.24754547555833, -8.475029441608397], [179.24784875847976, -8.474693154197594], [179.24789930561042, -8.474495337936194]]]}}, {"type": "Feature", "properties": {"name": "Fualefeke"}, "geometry": {"type": "Polygon", "coordinates": [[[179.2570987744655, -8.423910386663723], [179.25722008469586, -8.423771897059122], [179.2573717224309, -8.423781789175422], [179.2574121591503, -8.423890602437549], [179.25730095816186, -8.424177473618268], [179.25730095816186, -8.424296178872195], [179.25762445185856, -8.424899596683247], [179.25791761778996, -8.425799775602751], [179.25815012854474, -8.426126213594383], [179.25858482219357, -8.426432867214363], [179.25878700512138, -8.426630708130544], [179.25911049758844, -8.427036281692232], [179.25927224372154, -8.427402286736436], [179.2593834441493, -8.427768291434266], [179.25935311676307, -8.428223323818766], [179.2589386422486, -8.428856411463032], [179.2586454770829, -8.429044359157887], [179.25821078350148, -8.429103711042528], [179.25796816361796, -8.42899489924703], [179.25772554358386, -8.429024575194326], [179.25716953877114, -8.428965223297496], [179.2569471366246, -8.428826735502836], [179.2568359355039, -8.428569543752667], [179.256846044698, -8.428282675829472], [179.25718975714182, -8.427896887597228], [179.25727063061407, -8.42766937127979], [179.25727063061407, -8.426482327452893], [179.25722008469586, -8.426175673872136], [179.25720997551147, -8.425453553189266], [179.25693702743308, -8.424573157656432], [179.2569471366246, -8.42419725782981], [179.2570987744655, -8.423910386663723]], [[179.2570381193362, -8.428767383575716], [179.25716953877114, -8.428915763376526], [179.25725041224757, -8.428866303449258], [179.2574829233992, -8.428895979406388], [179.25750314175372, -8.42894543932989], [179.25758401516111, -8.428925655361239], [179.2577457619258, -8.429004791229682], [179.2580490369292, -8.428965223297496], [179.258301765919, -8.429034467176214], [179.2585039489932, -8.429034467176214], [179.2587061319628, -8.42894543932989], [179.25885776912142, -8.428767383575716], [179.25891842396842, -8.428757491586957], [179.25890831482792, -8.42865857168554], [179.25895886052783, -8.42865857168554], [179.25903973363413, -8.428510191786032], [179.25921158892945, -8.428421163818998], [179.25933289850423, -8.428025483717393], [179.2593025711141, -8.427886995586205], [179.25933289850423, -8.42779796747569], [179.25927224372154, -8.427748507405425], [179.25923180719454, -8.427441854828578], [179.25915093412797, -8.427323150540001], [179.25908017018102, -8.42707584982179], [179.2587667868333, -8.426759304671751], [179.25878700512138, -8.426690060385605], [179.25871624110857, -8.426670276301628], [179.25872635025402, -8.426630708130544], [179.25856460389505, -8.426462543358268], [179.25842307577608, -8.426422975165925], [179.25844329408193, -8.426363622869847], [179.25798838194737, -8.42603718507854], [179.25794794528755, -8.425908588297213], [179.2578670719554, -8.425898696235327], [179.2578569627877, -8.42569096287763], [179.2578165261143, -8.42561182633104], [179.2577659802667, -8.42566128667453], [179.257695216069, -8.425473337335543], [179.2577053252409, -8.425285387905225], [179.25766488855183, -8.425196359195864], [179.25760423351036, -8.42516668295485], [179.25763456103226, -8.425057870051656], [179.25750314175372, -8.424889704595598], [179.2574121591503, -8.424672078602738], [179.2573312857073, -8.424642402321536], [179.25725041224757, -8.424513805076485], [179.25713921121317, -8.424434668289116], [179.25707855609008, -8.424503912978976], [179.2571493203994, -8.424681970695985], [179.25712910202662, -8.424741323250094], [179.2573616132504, -8.425552473910464], [179.2573717224309, -8.42668016834378], [179.25749303257658, -8.426897793206768], [179.25739194079114, -8.427095633885093], [179.25735150406962, -8.427847427539582], [179.2570381193362, -8.428767383575716]]]}}, {"type": "Feature", "properties": {"name": "Fuagea"}, "geometry": {"type": "Polygon", "coordinates": [[[179.10898106729536, -8.372705429206832], [179.10813157000288, -8.372843937035793], [179.10796976078186, -8.372824150206107], [179.10790908230638, -8.37274500287726], [179.10790908230638, -8.372616388433562], [179.1080304392477, -8.372339372564337], [179.10849564050108, -8.37197331557768], [179.1099721450964, -8.371181839835376], [179.11032610083447, -8.371053224875297], [179.11054858713158, -8.370390362484208], [179.11072050827292, -8.370212279858482], [179.1105789261621, -8.370509084189452], [179.11036655289809, -8.37122141366071], [179.1099721450964, -8.371824913998594], [179.10898106729536, -8.372705429206832]]]}}, {"type": "Feature", "properties": {"name": "Funafala"}, "geometry": {"type": "Polygon", "coordinates": [[[179.07188460007842, -8.402928646875395], [179.07370512119408, -8.404086085040053], [179.0750300505613, -8.40516437902544], [179.07538403854718, -8.40536223080735], [179.0756065451136, -8.405589760231676], [179.0760009882544, -8.405817289522494], [179.07629429186485, -8.40591621525949], [179.07647634226868, -8.406302025392499], [179.07657748134451, -8.406381165885165], [179.07673930381026, -8.406381165885165], [179.07685055671578, -8.406331703079138], [179.07697192348493, -8.40592610783178], [179.07720454301827, -8.405945892975657], [179.07741693464268, -8.406074496386125], [179.07771023716836, -8.4061536369252], [179.07820581678752, -8.40608438895438], [179.07898458346457, -8.406064603817601], [179.07938913695745, -8.40591621525949], [179.07989482822265, -8.405846967246267], [179.08081518461177, -8.405619437972815], [179.0819074728412, -8.405421586322213], [179.08240304702932, -8.405401801151617], [179.08419317702177, -8.405569975069643], [179.08453704284244, -8.405738148914745], [179.08504272731216, -8.405866752394154], [179.0861046625267, -8.4058964301141], [179.0862159127122, -8.40593600040384], [179.0862361400152, -8.406005248401172], [179.0862159127122, -8.406094281522446], [179.0858619347371, -8.406242670012391], [179.08269634573662, -8.406292132829778], [179.08129053264994, -8.406410843565746], [179.0796520964987, -8.406638372374724], [179.07809456427577, -8.406737297902186], [179.07677975941596, -8.406687835141604], [179.07601110217573, -8.40650976915126], [179.0749693668737, -8.405995355830868], [179.07448389702665, -8.405659008290838], [179.07335113165544, -8.404679641733269], [179.07274429168456, -8.404234474298535], [179.07116650325636, -8.40335403053394], [179.0706001160798, -8.403136392441334], [179.06900209059674, -8.402790149769611], [179.06844581433688, -8.402701115889762], [179.0671916612555, -8.402651652614374], [179.06600830336725, -8.402800042421642], [179.0645215151883, -8.403096821865917], [179.06401580360557, -8.403274889423471], [179.0635100913539, -8.403571668504412], [179.0625391219553, -8.40390801785494], [179.0599903155479, -8.405431478907122], [179.05872602034756, -8.4063613807635], [179.05680428363024, -8.407449560954799], [179.0558636405549, -8.40813214515225], [179.05473082001288, -8.408606985624134], [179.05365868319046, -8.408864190636836], [179.05338559125465, -8.409052148038233], [179.0523640233925, -8.409190642907186], [179.05201001408972, -8.409210427884453], [179.05177737922625, -8.409121395478918], [179.05166611902405, -8.40899279307918], [179.05166611902405, -8.40889386812731], [179.05176726466377, -8.408696018147872], [179.05185829571658, -8.408102467603406], [179.05192909763156, -8.407914509741527], [179.05215161785023, -8.407677089154165], [179.05229322155822, -8.407647411570487], [179.05239436703178, -8.40772655178853], [179.05233367975086, -8.40792440226285], [179.05234379429837, -8.408003542424291], [179.05241459612327, -8.40806289753483], [179.05278883412262, -8.408003542424291], [179.05296078118852, -8.407904617219987], [179.05300123931045, -8.407340743073119], [179.05319341533095, -8.40700439670029], [179.05327433152112, -8.40674719045356], [179.0532642169983, -8.406529554265317], [179.0530821555414, -8.40585685982035], [179.053132728177, -8.40550072699459], [179.05318330080593, -8.405372123393773], [179.0533147896098, -8.405263304929022], [179.0533249041313, -8.405174271616978], [179.05314284270332, -8.405045667907933], [179.05304169742803, -8.404748889954957], [179.0530518119568, -8.404491682212068], [179.05314284270332, -8.404392756111635], [179.0533249041313, -8.404432326554831], [179.05343616385008, -8.404531252645162], [179.05366879770284, -8.404986312335463], [179.05353730902087, -8.4057480414916], [179.05369914123838, -8.405906322686896], [179.0540632634771, -8.406173422057474], [179.05435658391684, -8.406321810517166], [179.0552264294134, -8.406420736125403], [179.0554590621756, -8.406519661708435], [179.05559055019586, -8.406648264928592], [179.05582318273622, -8.406687835141604], [179.0561063873767, -8.40647019892008], [179.05653119394375, -8.40631191795498], [179.05666268159493, -8.40608438895438], [179.05734034800255, -8.405718363760293], [179.0576437803327, -8.405283090106728], [179.05779549640744, -8.405283090106728], [179.05807869958565, -8.405055560502422], [179.05825064427003, -8.405045667907933], [179.05841247449047, -8.404877493762472], [179.0587664778588, -8.404630178710226], [179.05894853660618, -8.40454114525278], [179.05918116710163, -8.40450157482069], [179.05948459796977, -8.404323507826348], [179.05956551282725, -8.404214689067333], [179.0596464276676, -8.404175118601975], [179.05976779989598, -8.404214689067333], [179.05992962947386, -8.404185011218676], [179.06031397444664, -8.403937695724766], [179.06034431745434, -8.403888232607123], [179.0602937457735, -8.403848662108382], [179.0605567184408, -8.403759628471514], [179.06057694710006, -8.403680487443856], [179.0606578617262, -8.403640916923981], [179.06072866201006, -8.403690380073177], [179.06114334912348, -8.403551883239432], [179.06135574966584, -8.403541990606547], [179.06190192194703, -8.403136392441334], [179.0623469506361, -8.402988002762713], [179.06260992189067, -8.40283961302734], [179.06441025869748, -8.402255946184036], [179.06497665504077, -8.402147126844937], [179.06517893924573, -8.402028414803848], [179.0659071614975, -8.402048200146549], [179.0663825280526, -8.401969058769652], [179.0668376656899, -8.401800883290127], [179.06715120463605, -8.401939380749157], [179.06735348769067, -8.40188991737661], [179.06752542820297, -8.40201852213211], [179.0677883958958, -8.401870132025843], [179.0680614775393, -8.401919595400923], [179.0684357002156, -8.402137234176253], [179.0688604930801, -8.40217680484953], [179.06913357395814, -8.402087770828935], [179.06939654054534, -8.402127341507288], [179.0703371503199, -8.402463692110281], [179.07081251136927, -8.402523048068792], [179.07137889823144, -8.402819827724969], [179.07188460007842, -8.402928646875395]]]}}]}