{"type":"FeatureCollection","features":[{"type":"Feature","properties":{"name":"Fuafatu"},"geometry":{"type":"Polygon","coordinates":[[[179.03866,-8.51017],[179.03848,-8.51035],[179.03795,-8.51051],[179.03772,-8.51052],[179.03768,-8.51056],[179.03761,-8.5108],[179.0379,-8.51085],[179.038,-8.51095],[179.03805,-8.51112],[179.03795,-8.51152],[179.03777,-8.51177],[179.03758,-8.51194],[179.03709,-8.51219],[179.03679,-8.51224],[179.03649,-8.51213],[179.03634,-8.51196],[179.03624,-8.51171],[179.03622,-8.51143],[179.03628,-8.51111],[179.0365,-8.51086],[179.03685,-8.5106],[179.03725,-8.51017],[179.03763,-8.50999],[179.03804,-8.5097],[179.03829,-8.50967],[179.03845,-8.50976],[179.03864,-8.50998],[179.03869,-8.51005],[179.03866,-8.51017]]]}},{"type":"Feature","properties":{"name":"Vasafua"},"geometry":{"type":"Polygon","coordinates":[[[179.05096,-8.55848],[179.05099,-8.55856],[179.05095,-8.55888],[179.05105,-8.55905],[179.05102,-8.55917],[179.05084,-8.55931],[179.0506,-8.55935],[179.0505,-8.55929],[179.05046,-8.55919],[179.05042,-8.55878],[179.0505,-8.55862],[179.05066,-8.55849],[179.05078,-8.55844],[179.05096,-8.55848]]]}},{"type":"Feature","properties":{"name":"Tefala"},"geometry":{"type":"Polygon","coordinates":[[[179.0709,-8.59733],[179.07108,-8.5979],[179.07106,-8.5981],[179.07099,-8.5982],[179.07072,-8.59828],[179.07014,-8.59825],[179.06993,-8.59794],[179.07006,-8.59762],[179.0706,-8.59714],[179.07083,-8.59686],[179.07092,-8.59683],[179.07097,-8.59686],[179.07091,-8.59705],[179.0709,-8.59733]]]}},{"type":"Feature","properties":{"name":"Falaoigo"},"geometry":{"type":"Polygon","coordinates":[[[179.07947,-8.62488],[179.07933,-8.62503],[179.07926,-8.62522],[179.07927,-8.62551],[179.07922,-8.62561],[179.07903,-8.62571],[179.07887,-8.62612],[179.07862,-8.62628],[179.07855,-8.62627],[179.07853,-8.62615],[179.07868,-8.62595],[179.07819,-8.62521],[179.07822,-8.62501],[179.07836,-8.62466],[179.07865,-8.62439],[179.07896,-8.62425],[179.07919,-8.62426],[179.07942,-8.62443],[179.07949,-8.62468],[179.07947,-8.62488]]]}},{"type":"Feature","properties":{"name":"Tutanga"},"geometry":{"type":"Polygon","coordinates":[[[179.07883,-8.62779],[179.07874,-8.628],[179.07831,-8.62821],[179.07787,-8.62818],[179.07746,-8.62791],[179.07734,-8.62773],[179.07726,-8.62754],[179.07728,-8.62722],[179.07749,-8.62693],[179.07777,-8.62688],[179.07796,-8.6269],[179.07809,-8.62698],[179.07822,-8.62693],[179.0783,-8.62673],[179.07845,-8.62663],[179.07854,-8.62669],[179.07857,-8.62686],[179.07862,-8.62735],[179.07857,-8.62749],[179.07883,-8.62779]]]}},{"type":"Feature","properties":{"name":"Avalau"},"geometry":{"type":"Polygon","coordinates":[[[179.07512,-8.63259],[179.0753,-8.63255],[179.07584,-8.63257],[179.07594,-8.63262],[179.07605,-8.63275],[179.07607,-8.6329],[179.07605,-8.63313],[179.07557,-8.63346],[179.0752,-8.63399],[179.0752,-8.63417],[179.07535,-8.63429],[179.07545,-8.63447],[179.07543,-8.6347],[179.07551,-8.63501],[179.07469,-8.63639],[179.07479,-8.63683],[179.07477,-8.63699],[179.07489,-8.63735],[179.07487,-8.63749],[179.07492,-8.63764],[179.07529,-8.63824],[179.0754,-8.63835],[179.0756,-8.63837],[179.07583,-8.63845],[179.07607,-8.63885],[179.07597,-8.63956],[179.07576,-8.63991],[179.07559,-8.64005],[179.07535,-8.64042],[179.07525,-8.64051],[179.07511,-8.64085],[179.07512,-8.64101],[179.07503,-8.64118],[179.07485,-8.64136],[179.07475,-8.64136],[179.07421,-8.64119],[179.07403,-8.64094],[179.07374,-8.64032],[179.07356,-8.63973],[179.07351,-8.63925],[179.07354,-8.63877],[179.07333,-8.63833],[179.0732,-8.63781],[179.07339,-8.63711],[179.07362,-8.63677],[179.07367,-8.63648],[179.07385,-8.6362],[179.07365,-8.63558],[179.07405,-8.63482],[179.07443,-8.63442],[179.07454,-8.63423],[179.07467,-8.63415],[179.07475,-8.63419],[179.07494,-8.63414],[179.0751,-8.63401],[179.07504,-8.6336],[179.07516,-8.63349],[179.07526,-8.63349],[179.07531,-8.63334],[179.07529,-8.63312],[179.07506,-8.63294],[179.07504,-8.63271],[179.07512,-8.63259]]]}},{"type":"Feature","properties":{"name":"Motuloa"},"geometry":{"type":"Polygon","coordinates":[[[179.08931,-8.63938],[179.08929,-8.6395],[179.08906,-8.63984],[179.08889,-8.63998],[179.08862,-8.64013],[179.08527,-8.64248],[179.08389,-8.64327],[179.08318,-8.64361],[179.08258,-8.64378],[179.08163,-8.64385],[179.0813,-8.6438],[179.08112,-8.64372],[179.08109,-8.64361],[179.08121,-8.64345],[179.08153,-8.64345],[179.08181,-8.64336],[179.08239,-8.64338],[179.08261,-8.64332],[179.08287,-8.64301],[179.08366,-8.64252],[179.08451,-8.6421],[179.08628,-8.6409],[179.08717,-8.64023],[179.08827,-8.63967],[179.0888,-8.63954],[179.0889,-8.63941],[179.08892,-8.6393],[179.08901,-8.63922],[179.08908,-8.63926],[179.08912,-8.63916],[179.08921,-8.63918],[179.08931,-8.63938]]]}},{"type":"Feature","properties":{"name":"Telele"},"geometry":{"type":"Polygon","coordinates":[[[179.09941,-8.63175],[179.0996,-8.63209],[179.09979,-8.63285],[179.10003,-8.63336],[179.10028,-8.63347],[179.10053,-8.63326],[179.10066,-8.63332],[179.10073,-8.63324],[179.10082,-8.63328],[179.10103,-8.63384],[179.10099,-8.6341],[179.1009,-8.63416],[179.09987,-8.63444],[179.0986,-8.63471],[179.09725,-8.63516],[179.09594,-8.63568],[179.09508,-8.63608],[179.09334,-8.63701],[179.0898,-8.63931],[179.08949,-8.63938],[179.08934,-8.63929],[179.08916,-8.63894],[179.08919,-8.63888],[179.08942,-8.63904],[179.08966,-8.63901],[179.09008,-8.63868],[179.09018,-8.6385],[179.09033,-8.63839],[179.09048,-8.63838],[179.09058,-8.63831],[179.09102,-8.63777],[179.09143,-8.63774],[179.09152,-8.63762],[179.09152,-8.63745],[179.09161,-8.63737],[179.09171,-8.63737],[179.09173,-8.63729],[179.09184,-8.63722],[179.09219,-8.63715],[179.09233,-8.63707],[179.09308,-8.63649],[179.09351,-8.63622],[179.09407,-8.63603],[179.09459,-8.63563],[179.09482,-8.63557],[179.09483,-8.63551],[179.0949,-8.63546],[179.09505,-8.63545],[179.09514,-8.63531],[179.09532,-8.63523],[179.09553,-8.63523],[179.09566,-8.63505],[179.09579,-8.63498],[179.09602,-8.63495],[179.09617,-8.63487],[179.09631,-8.6349],[179.09709,-8.63451],[179.09777,-8.63394],[179.0985,-8.63317],[179.09904,-8.63235],[179.09903,-8.63218],[179.09889,-8.63205],[179.09846,-8.63192],[179.09825,-8.63176],[179.09813,-8.63159],[179.0983,-8.63158],[179.09861,-8.63171],[179.09913,-8.63161],[179.09941,-8.63175]]]}},{"type":"Feature","properties":{"name":"Falefatu"},"geometry":{"type":"Polygon","coordinates":[[[179.11813,-8.57742],[179.11851,-8.57714],[179.11861,-8.57711],[179.11867,-8.57717],[179.11864,-8.57731],[179.1185,-8.57739],[179.11835,-8.5777],[179.11804,-8.57798],[179.118,-8.57812],[179.11797,-8.57824],[179.11807,-8.57846],[179.11808,-8.57869],[179.11818,-8.57878],[179.11823,-8.57894],[179.11821,-8.57921],[179.11817,-8.57926],[179.11809,-8.57973],[179.11788,-8.58027],[179.11763,-8.58126],[179.11762,-8.58151],[179.11755,-8.58162],[179.11741,-8.5817],[179.11728,-8.58166],[179.11725,-8.5816],[179.11729,-8.58153],[179.11737,-8.58155],[179.11733,-8.58158],[179.11736,-8.58162],[179.11744,-8.58158],[179.11737,-8.58114],[179.11753,-8.58057],[179.11734,-8.58061],[179.11718,-8.58071],[179.11712,-8.58087],[179.11722,-8.58101],[179.11722,-8.58109],[179.11689,-8.58137],[179.11666,-8.58144],[179.11638,-8.58171],[179.11606,-8.58211],[179.11541,-8.58265],[179.11544,-8.58279],[179.11533,-8.58274],[179.11521,-8.58278],[179.11516,-8.58287],[179.11505,-8.58293],[179.11481,-8.58295],[179.11428,-8.58274],[179.11407,-8.58261],[179.11403,-8.58237],[179.11418,-8.58217],[179.11441,-8.58199],[179.11481,-8.58182],[179.11502,-8.58191],[179.1154,-8.58174],[179.11643,-8.58109],[179.11673,-8.58078],[179.11707,-8.58034],[179.1173,-8.57993],[179.1175,-8.57943],[179.11742,-8.57928],[179.11745,-8.57918],[179.11764,-8.57918],[179.11777,-8.57889],[179.11788,-8.57855],[179.11784,-8.57836],[179.11786,-8.57803],[179.11797,-8.57766],[179.11813,-8.57742]]]}},{"type":"Feature","properties":{"name":"Motugie"},"geometry":{"type":"Polygon","coordinates":[[[179.08088,-8.64338],[179.08086,-8.6439],[179.08063,-8.64388],[179.08028,-8.64318],[179.07983,-8.64282],[179.0794,-8.64265],[179.07934,-8.64256],[179.0794,-8.64243],[179.07952,-8.64229],[179.08001,-8.64231],[179.08006,-8.64234],[179.08021,-8.64226],[179.08022,-8.64244],[179.08034,-8.64269],[179.08037,-8.64299],[179.08042,-8.643],[179.08057,-8.64289],[179.08058,-8.64279],[179.08062,-8.64278],[179.08049,-8.64249],[179.08055,-8.64216],[179.0805,-8.64208],[179.08032,-8.64196],[179.08022,-8.64193],[179.08015,-8.64199],[179.08007,-8.64198],[179.08008,-8.64188],[179.08034,-8.64189],[179.08077,-8.64214],[179.08086,-8.64198],[179.08103,-8.64188],[179.08111,-8.6419],[179.08115,-8.6422],[179.08095,-8.64253],[179.08088,-8.64284],[179.08102,-8.64286],[179.08088,-8.64338]]]}},{"type":"Feature","properties":{"name":"Funamanu"},"geometry":{"type":"Polygon","coordinates":[[[179.13637,-8.56374],[179.13615,-8.5639],[179.13592,-8.56434],[179.13577,-8.56451],[179.13561,-8.56458],[179.13534,-8.56489],[179.13481,-8.56526],[179.13379,-8.56559],[179.13303,-8.5656],[179.13216,-8.56575],[179.13185,-8.56575],[179.13132,-8.56593],[179.13033,-8.56616],[179.12996,-8.5661],[179.1298,-8.56621],[179.12973,-8.56605],[179.12977,-8.56595],[179.13105,-8.5653],[179.13123,-8.56526],[179.13148,-8.56512],[179.13228,-8.56492],[179.13256,-8.56492],[179.13302,-8.56473],[179.13418,-8.56468],[179.13481,-8.56454],[179.13534,-8.56427],[179.13568,-8.56399],[179.13626,-8.56364],[179.13636,-8.56362],[179.13637,-8.56374]]]}},{"type":"Feature","properties":{"name":"Fualopa"},"geometry":{"type":"Polygon","coordinates":[[[179.06089,-8.49145],[179.06005,-8.49144],[179.05938,-8.49131],[179.05919,-8.49102],[179.05939,-8.49073],[179.0594,-8.49039],[179.0597,-8.4902],[179.06042,-8.49014],[179.06075,-8.48998],[179.06111,-8.48999],[179.06211,-8.49036],[179.06242,-8.49053],[179.06262,-8.49083],[179.06256,-8.49118],[179.06224,-8.49129],[179.06089,-8.49145]]]}},{"type":"Feature","properties":{"name":"Tepuka"},"geometry":{"type":"Polygon","coordinates":[[[179.0802,-8.46546],[179.07956,-8.46429],[179.07933,-8.46359],[179.07908,-8.46321],[179.07873,-8.46246],[179.07859,-8.4622],[179.0785,-8.46213],[179.07845,-8.46199],[179.07824,-8.46073],[179.07832,-8.46045],[179.07847,-8.46034],[179.07887,-8.46035],[179.0796,-8.46047],[179.08022,-8.46072],[179.08081,-8.46088],[179.08115,-8.46112],[179.08137,-8.46135],[179.08159,-8.46185],[179.08167,-8.46238],[179.0816,-8.46269],[179.0814,-8.46325],[179.08123,-8.46354],[179.08124,-8.46364],[179.08086,-8.46441],[179.08067,-8.46529],[179.08057,-8.46542],[179.08036,-8.46553],[179.0802,-8.46546]]]}},{"type":"Feature","properties":{"name":"Mulitefala"},"geometry":{"type":"Polygon","coordinates":[[[179.16722,-8.43507],[179.16699,-8.43533],[179.16666,-8.43531],[179.16647,-8.43519],[179.16614,-8.4348],[179.16589,-8.43466],[179.16555,-8.43453],[179.16531,-8.43437],[179.16527,-8.43415],[179.16536,-8.43404],[179.16564,-8.43398],[179.16592,-8.43374],[179.16604,-8.43358],[179.16593,-8.43338],[179.16679,-8.43371],[179.16698,-8.43377],[179.16716,-8.43375],[179.16743,-8.43384],[179.16753,-8.4339],[179.16759,-8.43409],[179.1676,-8.4345],[179.16722,-8.43507]]]}},{"type":"Feature","properties":{"name":"Te Afualiku"},"geometry":{"type":"Polygon","coordinates":[[[179.09396,-8.43582],[179.09438,-8.43521],[179.0947,-8.43508],[179.09512,-8.43506],[179.09498,-8.43541],[179.09481,-8.43562],[179.09402,-8.43599],[179.09378,-8.436],[179.0938,-8.43593],[179.09396,-8.43582]]]}},{"type":"Feature","properties":{"name":"Paava"},"geometry":{"type":"Polygon","coordinates":[[[179.11744,-8.42765],[179.11768,-8.42785],[179.11779,-8.42803],[179.11776,-8.42817],[179.1175,-8.4282],[179.11655,-8.42811],[179.11636,-8.42805],[179.11575,-8.42775],[179.11561,-8.42751],[179.11558,-8.42722],[179.11567,-8.42708],[179.11583,-8.42693],[179.11625,-8.42694],[179.11677,-8.42729],[179.1169,-8.42733],[179.11744,-8.42765]]]}},{"type":"Feature","properties":{"name":"Fatato"},"geometry":{"type":"Polygon","coordinates":[[[179.15813,-8.54959],[179.15888,-8.5493],[179.15913,-8.54928],[179.15945,-8.54907],[179.16052,-8.54824],[179.16064,-8.54809],[179.1607,-8.5481],[179.16233,-8.54689],[179.16337,-8.54648],[179.16396,-8.54613],[179.16462,-8.54564],[179.16472,-8.54523],[179.16489,-8.545],[179.16502,-8.54499],[179.1651,-8.54506],[179.16519,-8.5453],[179.16515,-8.54562],[179.165,-8.54603],[179.16484,-8.54629],[179.16396,-8.54699],[179.16082,-8.54891],[179.15906,-8.54988],[179.15849,-8.54994],[179.15804,-8.54979],[179.15786,-8.54965],[179.15785,-8.54951],[179.15794,-8.54942],[179.15813,-8.54959]]]}},{"type":"Feature","properties":{"name":"Fongafale"},"geometry":{"type":"Polygon","coordinates":[[[179.17234,-8.54024],[179.17288,-8.53999],[179.17325,-8.53993],[179.17343,-8.53984],[179.17402,-8.53966],[179.17437,-8.53949],[179.17463,-8.53928],[179.1751,-8.53911],[179.1751,-8.53906],[179.1757,-8.53893],[179.17576,-8.53887],[179.17611,-8.53887],[179.17657,-8.53871],[179.17671,-8.53875],[179.17731,-8.53857],[179.17757,-8.53861],[179.17778,-8.53853],[179.17794,-8.53857],[179.17798,-8.53863],[179.17797,-8.53875],[179.1781,-8.53878],[179.17848,-8.53864],[179.17875,-8.53863],[179.17917,-8.53848],[179.17935,-8.53847],[179.17987,-8.53826],[179.18065,-8.53777],[179.18139,-8.53741],[179.18293,-8.53636],[179.18351,-8.53586],[179.18374,-8.53572],[179.18488,-8.5347],[179.18522,-8.53446],[179.1856,-8.53397],[179.18595,-8.53379],[179.18627,-8.53344],[179.18649,-8.53328],[179.18666,-8.53305],[179.18716,-8.5326],[179.18735,-8.53251],[179.18824,-8.53181],[179.18847,-8.53149],[179.18873,-8.53123],[179.18953,-8.53057],[179.18984,-8.53016],[179.19073,-8.52926],[179.19112,-8.52875],[179.19152,-8.52779],[179.19179,-8.52743],[179.19225,-8.52662],[179.19248,-8.52608],[179.1927,-8.52574],[179.19292,-8.52512],[179.19285,-8.52502],[179.19239,-8.52485],[179.19222,-8.52468],[179.19231,-8.52464],[179.19262,-8.52476],[179.19292,-8.52447],[179.19337,-8.52357],[179.19395,-8.52275],[179.19383,-8.52264],[179.194,-8.52222],[179.19466,-8.52082],[179.19511,-8.52007],[179.19714,-8.51711],[179.19731,-8.51722],[179.19725,-8.51734],[179.19763,-8.51757],[179.1977,-8.51757],[179.19776,-8.5175],[179.19781,-8.51722],[179.19777,-8.51711],[179.19751,-8.51698],[179.19739,-8.51682],[179.19716,-8.51668],[179.19719,-8.51665],[179.19751,-8.51679],[179.1978,-8.51681],[179.19801,-8.5169],[179.19823,-8.51676],[179.19836,-8.5166],[179.19847,-8.51615],[179.19875,-8.51548],[179.19887,-8.51508],[179.1991,-8.51389],[179.19904,-8.51352],[179.19868,-8.51294],[179.19847,-8.51213],[179.1984,-8.51059],[179.19829,-8.51001],[179.19779,-8.50901],[179.19752,-8.50812],[179.19699,-8.50701],[179.19659,-8.50576],[179.1962,-8.50487],[179.19577,-8.50338],[179.19541,-8.50238],[179.19529,-8.5023],[179.19531,-8.5022],[179.19505,-8.50134],[179.195,-8.50099],[179.19467,-8.4997],[179.19448,-8.49922],[179.19446,-8.49868],[179.19442,-8.49853],[179.19422,-8.49825],[179.1941,-8.49791],[179.19412,-8.49755],[179.19399,-8.49685],[179.19356,-8.4952],[179.19315,-8.49401],[179.19262,-8.49158],[179.19223,-8.48948],[179.19196,-8.48826],[179.19191,-8.48706],[179.19167,-8.48587],[179.19168,-8.48553],[179.19172,-8.48537],[179.19172,-8.48429],[179.19181,-8.48377],[179.19176,-8.48362],[179.19183,-8.48327],[179.19178,-8.48313],[179.19173,-8.4811],[179.19149,-8.47869],[179.1913,-8.47771],[179.1912,-8.47742],[179.19085,-8.47544],[179.1905,-8.47428],[179.19016,-8.47333],[179.18956,-8.47203],[179.18931,-8.47163],[179.18891,-8.47138],[179.18869,-8.47118],[179.18854,-8.47095],[179.18817,-8.47053],[179.18807,-8.47033],[179.18763,-8.46985],[179.18668,-8.46821],[179.18642,-8.46767],[179.18632,-8.46729],[179.18621,-8.46713],[179.18612,-8.4666],[179.18547,-8.46465],[179.18523,-8.46409],[179.185,-8.46383],[179.18487,-8.46311],[179.18438,-8.46162],[179.18427,-8.461],[179.18413,-8.46075],[179.18399,-8.46029],[179.18383,-8.46003],[179.18374,-8.45959],[179.18346,-8.45884],[179.18313,-8.45828],[179.1829,-8.4577],[179.18129,-8.4544],[179.1804,-8.45271],[179.18033,-8.45238],[179.17991,-8.45141],[179.1798,-8.4512],[179.17953,-8.45091],[179.17894,-8.44979],[179.17877,-8.44958],[179.17836,-8.44889],[179.17786,-8.4482],[179.17769,-8.44776],[179.17773,-8.44764],[179.17779,-8.44762],[179.17845,-8.44791],[179.17869,-8.44807],[179.17897,-8.44839],[179.18066,-8.45153],[179.18186,-8.45401],[179.18298,-8.45646],[179.18428,-8.45909],[179.18478,-8.46046],[179.18558,-8.46235],[179.18598,-8.46345],[179.18683,-8.46632],[179.18749,-8.46812],[179.18812,-8.4693],[179.18924,-8.47108],[179.18987,-8.47195],[179.19052,-8.47304],[179.19109,-8.47407],[179.19151,-8.47506],[179.19217,-8.47701],[179.19244,-8.47805],[179.19261,-8.47903],[179.19272,-8.48027],[179.19269,-8.48085],[179.19274,-8.48117],[179.19262,-8.48503],[179.19268,-8.48722],[179.19284,-8.48942],[179.19319,-8.49132],[179.1943,-8.49489],[179.19472,-8.49701],[179.19552,-8.50049],[179.19678,-8.50408],[179.19774,-8.50645],[179.19851,-8.50853],[179.20028,-8.51278],[179.20173,-8.51601],[179.20245,-8.51792],[179.20275,-8.519],[179.20285,-8.51978],[179.20275,-8.52058],[179.2023,-8.52168],[179.202,-8.52214],[179.20155,-8.52269],[179.20084,-8.52335],[179.1963,-8.52659],[179.19338,-8.52891],[179.19141,-8.5304],[179.18886,-8.53255],[179.18822,-8.53316],[179.18691,-8.53417],[179.18589,-8.53505],[179.1837,-8.53664],[179.18279,-8.53741],[179.18205,-8.53794],[179.1809,-8.53856],[179.1788,-8.53928],[179.17649,-8.53957],[179.1748,-8.53988],[179.17274,-8.5405],[179.17204,-8.54034],[179.17198,-8.54029],[179.17208,-8.54023],[179.17234,-8.54024]]]}},{"type":"Feature","properties":{"name":"Funangongo"},"geometry":{"type":"Polygon","coordinates":[[[179.14178,-8.56017],[179.14121,-8.56043],[179.14036,-8.56092],[179.14015,-8.56093],[179.13995,-8.56085],[179.13989,-8.56077],[179.13998,-8.56073],[179.14007,-8.56077],[179.14025,-8.5607],[179.14055,-8.56047],[179.1411,-8.56027],[179.1415,-8.56004],[179.14177,-8.55998],[179.14173,-8.55988],[179.14155,-8.55999],[179.14091,-8.56002],[179.14075,-8.55988],[179.14076,-8.55979],[179.14083,-8.55972],[179.14156,-8.55921],[179.14204,-8.559],[179.14299,-8.55836],[179.14346,-8.55834],[179.14375,-8.55821],[179.14444,-8.55775],[179.14457,-8.55759],[179.14473,-8.55768],[179.14509,-8.55769],[179.1455,-8.55741],[179.14558,-8.55724],[179.14692,-8.55659],[179.14769,-8.55628],[179.14797,-8.55607],[179.14852,-8.55589],[179.14902,-8.55561],[179.14948,-8.55544],[179.14959,-8.55535],[179.14987,-8.55472],[179.15006,-8.55452],[179.15009,-8.55454],[179.15011,-8.55464],[179.15005,-8.55472],[179.15017,-8.55499],[179.15017,-8.55518],[179.15011,-8.55547],[179.14993,-8.55586],[179.14962,-8.55627],[179.14898,-8.55692],[179.1482,-8.55755],[179.14761,-8.55793],[179.14641,-8.55853],[179.14599,-8.55868],[179.14537,-8.55879],[179.14267,-8.55967],[179.14253,-8.55969],[179.14244,-8.55966],[179.1424,-8.55957],[179.1423,-8.55956],[179.1421,-8.55962],[179.14201,-8.55967],[179.14208,-8.55974],[179.142,-8.56001],[179.14178,-8.56017]]]}},{"type":"Feature","properties":{"name":"Amatuku"},"geometry":{"type":"Polygon","coordinates":[[[179.16926,-8.43774],[179.16887,-8.43723],[179.16872,-8.43726],[179.16847,-8.43716],[179.16838,-8.43703],[179.16796,-8.43688],[179.16788,-8.43679],[179.1677,-8.43679],[179.16763,-8.43632],[179.16753,-8.43611],[179.16755,-8.43598],[179.16778,-8.43587],[179.16796,-8.43595],[179.1681,-8.43604],[179.16825,-8.43622],[179.16805,-8.43629],[179.16808,-8.43635],[179.16821,-8.43637],[179.16836,-8.4363],[179.16873,-8.43663],[179.16876,-8.43671],[179.16898,-8.43687],[179.16963,-8.43697],[179.16971,-8.43717],[179.17004,-8.4373],[179.17026,-8.43728],[179.17033,-8.43744],[179.17063,-8.43738],[179.1707,-8.43729],[179.17071,-8.43716],[179.17118,-8.43676],[179.17132,-8.43679],[179.17202,-8.43815],[179.17254,-8.43973],[179.17288,-8.44049],[179.17316,-8.44093],[179.17367,-8.44194],[179.17384,-8.44212],[179.17392,-8.44229],[179.1744,-8.44285],[179.17455,-8.44311],[179.17442,-8.44312],[179.17415,-8.4434],[179.17404,-8.4434],[179.17383,-8.443],[179.17361,-8.44276],[179.17358,-8.44264],[179.17377,-8.44233],[179.17378,-8.44221],[179.17371,-8.4421],[179.17359,-8.44212],[179.17353,-8.44223],[179.17328,-8.44223],[179.17325,-8.44211],[179.17329,-8.44199],[179.17318,-8.44171],[179.17285,-8.44118],[179.17239,-8.44067],[179.17227,-8.44068],[179.1719,-8.44001],[179.17141,-8.43961],[179.17108,-8.43922],[179.17086,-8.43904],[179.17071,-8.43895],[179.17061,-8.43895],[179.1706,-8.43902],[179.17052,-8.43899],[179.17055,-8.43887],[179.1699,-8.4383],[179.1698,-8.43809],[179.16946,-8.43779],[179.16926,-8.43774]]]}},{"type":"Feature","properties":{"name":"Fualefeke"},"geometry":{"type":"Polygon","coordinates":[[[179.11812,-8.42864],[179.11798,-8.42852],[179.11799,-8.42837],[179.1181,-8.42833],[179.11839,-8.42844],[179.11851,-8.42844],[179.11912,-8.42812],[179.12003,-8.42783],[179.12036,-8.4276],[179.12067,-8.42717],[179.12087,-8.42697],[179.12128,-8.42665],[179.12165,-8.42649],[179.12202,-8.42638],[179.12248,-8.42641],[179.12312,-8.42682],[179.12331,-8.42711],[179.12337,-8.42754],[179.12326,-8.42778],[179.12329,-8.42802],[179.12323,-8.42857],[179.12309,-8.42879],[179.12283,-8.4289],[179.12254,-8.42889],[179.12215,-8.42855],[179.12192,-8.42847],[179.12072,-8.42847],[179.12041,-8.42852],[179.11968,-8.42853],[179.11879,-8.4288],[179.11841,-8.42879],[179.11812,-8.42864]],[[179.12303,-8.4287],[179.12318,-8.42857],[179.12313,-8.42849],[179.12316,-8.42826],[179.12321,-8.42824],[179.12319,-8.42816],[179.12327,-8.428],[179.12323,-8.4277],[179.1233,-8.42745],[179.1233,-8.42725],[179.12321,-8.42705],[179.12303,-8.4269],[179.12302,-8.42684],[179.12292,-8.42685],[179.12292,-8.4268],[179.12277,-8.42672],[179.12268,-8.42655],[179.12228,-8.42643],[179.12214,-8.42646],[179.12205,-8.42643],[179.122,-8.42649],[179.12169,-8.42653],[179.12157,-8.42661],[179.12132,-8.42668],[179.121,-8.42699],[179.12093,-8.42697],[179.12091,-8.42704],[179.12087,-8.42703],[179.1207,-8.42719],[179.12066,-8.42733],[179.1206,-8.42731],[179.12027,-8.42776],[179.12014,-8.4278],[179.12013,-8.42788],[179.11992,-8.42789],[179.11984,-8.42793],[179.11989,-8.42798],[179.1197,-8.42805],[179.11951,-8.42804],[179.11942,-8.42808],[179.11939,-8.42814],[179.11928,-8.42811],[179.11911,-8.42824],[179.11889,-8.42833],[179.11886,-8.42841],[179.11873,-8.42849],[179.11865,-8.4286],[179.11872,-8.42866],[179.1189,-8.42859],[179.11896,-8.42861],[179.11978,-8.42838],[179.12092,-8.42837],[179.12114,-8.42825],[179.12134,-8.42835],[179.1221,-8.42839],[179.12303,-8.4287]]]}},{"type":"Feature","properties":{"name":"Fuagea"},"geometry":{"type":"Polygon","coordinates":[[[179.06636,-8.57513],[179.0665,-8.57597],[179.06648,-8.57613],[179.0664,-8.57619],[179.06627,-8.57619],[179.06599,-8.57607],[179.06562,-8.57561],[179.06482,-8.57415],[179.06469,-8.5738],[179.06402,-8.57358],[179.06384,-8.57341],[179.06414,-8.57355],[179.06486,-8.57376],[179.06547,-8.57415],[179.06636,-8.57513]]]}},{"type":"Feature","properties":{"name":"Funafala"},"geometry":{"type":"Polygon","coordinates":[[[179.09691,-8.61181],[179.09808,-8.61001],[179.09917,-8.6087],[179.09937,-8.60835],[179.0996,-8.60813],[179.09983,-8.60774],[179.09993,-8.60745],[179.10032,-8.60727],[179.1004,-8.60717],[179.1004,-8.60701],[179.10035,-8.6069],[179.09994,-8.60678],[179.09996,-8.60655],[179.10009,-8.60634],[179.10017,-8.60605],[179.1001,-8.60556],[179.10008,-8.60479],[179.09993,-8.60439],[179.09986,-8.60389],[179.09963,-8.60298],[179.09943,-8.6019],[179.09941,-8.60141],[179.09958,-8.59964],[179.09975,-8.5993],[179.09988,-8.5988],[179.09991,-8.59775],[179.09995,-8.59764],[179.10002,-8.59762],[179.10011,-8.59764],[179.10026,-8.59799],[179.10031,-8.60112],[179.10043,-8.60251],[179.10066,-8.60413],[179.10076,-8.60567],[179.10071,-8.60697],[179.10053,-8.60773],[179.10001,-8.60876],[179.09967,-8.60924],[179.09868,-8.61036],[179.09823,-8.61096],[179.09734,-8.61252],[179.09712,-8.61308],[179.09677,-8.61466],[179.09668,-8.61521],[179.09663,-8.61645],[179.09678,-8.61762],[179.09708,-8.61909],[179.09726,-8.61959],[179.09756,-8.62009],[179.0979,-8.62105],[179.09944,-8.62357],[179.10038,-8.62482],[179.10148,-8.62672],[179.10217,-8.62765],[179.10265,-8.62877],[179.10291,-8.62983],[179.1031,-8.6301],[179.10324,-8.63111],[179.10326,-8.63146],[179.10317,-8.63169],[179.10304,-8.6318],[179.10294,-8.6318],[179.10274,-8.6317],[179.10214,-8.63161],[179.10195,-8.63154],[179.10171,-8.63132],[179.10168,-8.63118],[179.10176,-8.63108],[179.10196,-8.63114],[179.10204,-8.63113],[179.1021,-8.63106],[179.10204,-8.63069],[179.10194,-8.63052],[179.10137,-8.63048],[179.10103,-8.63029],[179.10077,-8.63021],[179.10055,-8.63022],[179.09987,-8.6304],[179.09951,-8.63035],[179.09938,-8.6303],[179.09927,-8.63017],[179.09918,-8.63016],[179.09905,-8.63034],[179.09875,-8.63044],[179.09849,-8.63043],[179.09839,-8.63034],[179.09843,-8.63016],[179.09853,-8.63005],[179.09899,-8.62982],[179.09976,-8.62995],[179.09992,-8.62979],[179.10019,-8.62943],[179.10034,-8.62914],[179.10044,-8.62828],[179.10054,-8.62805],[179.10067,-8.62792],[179.10071,-8.62769],[179.10049,-8.62741],[179.10033,-8.62699],[179.1001,-8.62686],[179.09973,-8.62619],[179.09929,-8.62589],[179.09929,-8.62574],[179.09906,-8.62546],[179.09905,-8.62529],[179.09888,-8.62513],[179.09863,-8.62478],[179.09854,-8.6246],[179.0985,-8.62437],[179.09832,-8.62407],[179.09821,-8.62399],[179.09817,-8.62391],[179.09821,-8.62379],[179.09818,-8.62363],[179.09793,-8.62325],[179.09788,-8.62322],[179.09784,-8.62327],[179.09775,-8.62301],[179.09767,-8.62299],[179.09763,-8.62291],[179.09768,-8.62284],[179.09754,-8.62243],[179.09753,-8.62222],[179.09712,-8.62168],[179.09697,-8.62124],[179.09682,-8.62098],[179.09623,-8.6192],[179.09612,-8.61864],[179.096,-8.61844],[179.09602,-8.61772],[179.09594,-8.61725],[179.09577,-8.6168],[179.09591,-8.61649],[179.09586,-8.61629],[179.09599,-8.61612],[179.09584,-8.61586],[179.09589,-8.61559],[179.09611,-8.61522],[179.09615,-8.6148],[179.09606,-8.61453],[179.0961,-8.61427],[179.09644,-8.61334],[179.0965,-8.61287],[179.0968,-8.61231],[179.09691,-8.61181]]]}}]}