{"type":"FeatureCollection","features":[{"type":"Feature","properties":{},"geometry":{"type":"Polygon","coordinates":[[[179.04533,-8.50973],[179.04519,-8.50957],[179.04527,-8.50945],[179.04548,-8.50937],[179.04576,-8.50951],[179.04577,-8.50969],[179.04533,-8.50973]]]}},{"type":"Feature","properties":{},"geometry":{"type":"Polygon","coordinates":[[[179.04812,-8.50944],[179.04798,-8.50927],[179.04806,-8.50915],[179.04827,-8.50907],[179.04855,-8.50922],[179.04856,-8.50939],[179.04812,-8.50944]]]}},{"type":"Feature","properties":{},"geometry":{"type":"Polygon","coordinates":[[[179.05503,-8.52964],[179.05489,-8.52947],[179.05497,-8.52935],[179.05518,-8.52927],[179.05546,-8.52942],[179.05547,-8.5296],[179.05503,-8.52964]]]}},{"type":"Feature","properties":{},"geometry":{"type":"Polygon","coordinates":[[[179.04674,-8.51334],[179.0466,-8.51317],[179.04669,-8.51305],[179.0469,-8.51298],[179.04717,-8.51312],[179.04718,-8.5133],[179.04674,-8.51334]]]}},{"type":"Feature","properties":{},"geometry":{"type":"Polygon","coordinates":[[[179.05013,-8.51529],[179.04999,-8.51513],[179.05008,-8.51501],[179.05029,-8.51493],[179.05056,-8.51507],[179.05057,-8.51525],[179.05013,-8.51529]]]}},{"type":"Feature","properties":{},"geometry":{"type":"Polygon","coordinates":[[[179.05464,-8.51546],[179.0545,-8.5153],[179.05458,-8.51518],[179.05479,-8.5151],[179.05507,-8.51524],[179.05508,-8.51542],[179.05464,-8.51546]]]}},{"type":"Feature","properties":{},"geometry":{"type":"Polygon","coordinates":[[[179.05687,-8.51682],[179.05673,-8.51665],[179.05682,-8.51653],[179.05702,-8.51646],[179.0573,-8.5166],[179.05731,-8.51678],[179.05687,-8.51682]]]}},{"type":"Feature","properties":{},"geometry":{"type":"Polygon","coordinates":[[[179.05443,-8.52128],[179.05428,-8.52111],[179.05437,-8.52099],[179.05458,-8.52091],[179.05486,-8.52106],[179.05487,-8.52124],[179.05443,-8.52128]]]}},{"type":"Feature","properties":{},"geometry":{"type":"Polygon","coordinates":[[[179.05129,-8.5175],[179.05115,-8.51733],[179.05124,-8.51721],[179.05145,-8.51713],[179.05172,-8.51728],[179.05173,-8.51746],[179.05129,-8.5175]]]}},{"type":"Feature","properties":{},"geometry":{"type":"Polygon","coordinates":[[[179.06451,-8.5091],[179.06437,-8.50893],[179.06446,-8.50881],[179.06466,-8.50873],[179.06494,-8.50888],[179.06495,-8.50905],[179.06451,-8.5091]]]}},{"type":"Feature","properties":{},"geometry":{"type":"Polygon","coordinates":[[[179.06391,-8.50282],[179.06377,-8.50265],[179.06385,-8.50253],[179.06406,-8.50245],[179.06434,-8.5026],[179.06435,-8.50277],[179.06391,-8.50282]]]}},{"type":"Feature","properties":{},"geometry":{"type":"Polygon","coordinates":[[[179.07249,-8.50205],[179.07235,-8.50188],[179.07244,-8.50176],[179.07265,-8.50169],[179.07292,-8.50183],[179.07293,-8.50201],[179.07249,-8.50205]]]}},{"type":"Feature","properties":{},"geometry":{"type":"Polygon","coordinates":[[[179.07099,-8.49972],[179.07085,-8.49955],[179.07094,-8.49943],[179.07114,-8.49935],[179.07142,-8.4995],[179.07143,-8.49967],[179.07099,-8.49972]]]}},{"type":"Feature","properties":{},"geometry":{"type":"Polygon","coordinates":[[[179.05576,-8.51322],[179.05561,-8.51305],[179.0557,-8.51293],[179.05591,-8.51285],[179.05619,-8.51299],[179.0562,-8.51317],[179.05576,-8.51322]]]}},{"type":"Feature","properties":{},"geometry":{"type":"Polygon","coordinates":[[[179.05468,-8.5105],[179.05454,-8.51033],[179.05463,-8.51021],[179.05484,-8.51013],[179.05511,-8.51028],[179.05512,-8.51045],[179.05468,-8.5105]]]}},{"type":"Feature","properties":{},"geometry":{"type":"Polygon","coordinates":[[[179.05138,-8.5085],[179.05124,-8.50834],[179.05132,-8.50821],[179.05153,-8.50814],[179.05181,-8.50828],[179.05182,-8.50846],[179.05138,-8.5085]]]}},{"type":"Feature","properties":{},"geometry":{"type":"Polygon","coordinates":[[[179.04734,-8.50434],[179.0472,-8.50418],[179.04729,-8.50406],[179.0475,-8.50398],[179.04777,-8.50412],[179.04778,-8.5043],[179.04734,-8.50434]]]}},{"type":"Feature","properties":{},"geometry":{"type":"Polygon","coordinates":[[[179.05005,-8.50333],[179.04991,-8.50316],[179.04999,-8.50304],[179.0502,-8.50296],[179.05048,-8.50311],[179.05049,-8.50328],[179.05005,-8.50333]]]}},{"type":"Feature","properties":{},"geometry":{"type":"Polygon","coordinates":[[[179.04928,-8.50129],[179.04913,-8.50112],[179.04922,-8.501],[179.04943,-8.50092],[179.04971,-8.50107],[179.04972,-8.50124],[179.04928,-8.50129]]]}},{"type":"Feature","properties":{},"geometry":{"type":"Polygon","coordinates":[[[179.05855,-8.49968],[179.0584,-8.49951],[179.05849,-8.49939],[179.0587,-8.49931],[179.05898,-8.49946],[179.05899,-8.49963],[179.05855,-8.49968]]]}},{"type":"Feature","properties":{},"geometry":{"type":"Polygon","coordinates":[[[179.06189,-8.49772],[179.06175,-8.49755],[179.06184,-8.49743],[179.06205,-8.49736],[179.06232,-8.4975],[179.06233,-8.49768],[179.06189,-8.49772]]]}},{"type":"Feature","properties":{},"geometry":{"type":"Polygon","coordinates":[[[179.05846,-8.49479],[179.05832,-8.49463],[179.0584,-8.49451],[179.05861,-8.49443],[179.05889,-8.49457],[179.0589,-8.49475],[179.05846,-8.49479]]]}},{"type":"Feature","properties":{},"geometry":{"type":"Polygon","coordinates":[[[179.05297,-8.49437],[179.05283,-8.4942],[179.05291,-8.49408],[179.05312,-8.494],[179.0534,-8.49415],[179.05341,-8.49433],[179.05297,-8.49437]]]}},{"type":"Feature","properties":{},"geometry":{"type":"Polygon","coordinates":[[[179.09065,-8.48121],[179.09051,-8.48104],[179.09059,-8.48092],[179.0908,-8.48085],[179.09108,-8.48099],[179.09109,-8.48117],[179.09065,-8.48121]]]}},{"type":"Feature","properties":{},"geometry":{"type":"Polygon","coordinates":[[[179.08103,-8.47349],[179.08089,-8.47332],[179.08098,-8.4732],[179.08119,-8.47312],[179.08146,-8.47327],[179.08147,-8.47344],[179.08103,-8.47349]]]}},{"type":"Feature","properties":{},"geometry":{"type":"Polygon","coordinates":[[[179.07721,-8.48223],[179.07707,-8.48206],[179.07716,-8.48194],[179.07737,-8.48186],[179.07764,-8.48201],[179.07765,-8.48219],[179.07721,-8.48223]]]}},{"type":"Feature","properties":{},"geometry":{"type":"Polygon","coordinates":[[[179.08966,-8.46254],[179.08952,-8.46237],[179.0896,-8.46225],[179.08981,-8.46217],[179.09009,-8.46231],[179.0901,-8.46249],[179.08966,-8.46254]]]}},{"type":"Feature","properties":{},"geometry":{"type":"Polygon","coordinates":[[[179.08799,-8.46593],[179.08784,-8.46576],[179.08793,-8.46564],[179.08814,-8.46556],[179.08842,-8.46571],[179.08843,-8.46589],[179.08799,-8.46593]]]}},{"type":"Feature","properties":{},"geometry":{"type":"Polygon","coordinates":[[[179.09326,-8.4574],[179.09312,-8.45723],[179.09321,-8.45711],[179.09342,-8.45703],[179.09369,-8.45718],[179.0937,-8.45736],[179.09326,-8.4574]]]}},{"type":"Feature","properties":{},"geometry":{"type":"Polygon","coordinates":[[[179.09065,-8.4532],[179.09051,-8.45303],[179.09059,-8.45291],[179.0908,-8.45283],[179.09108,-8.45298],[179.09109,-8.45315],[179.09065,-8.4532]]]}},{"type":"Feature","properties":{},"geometry":{"type":"Polygon","coordinates":[[[179.09541,-8.45545],[179.09527,-8.45528],[179.09535,-8.45516],[179.09556,-8.45508],[179.09584,-8.45523],[179.09585,-8.4554],[179.09541,-8.45545]]]}},{"type":"Feature","properties":{},"geometry":{"type":"Polygon","coordinates":[[[179.09605,-8.45124],[179.09591,-8.45108],[179.096,-8.45095],[179.09621,-8.45088],[179.09648,-8.45102],[179.09649,-8.4512],[179.09605,-8.45124]]]}},{"type":"Feature","properties":{},"geometry":{"type":"Polygon","coordinates":[[[179.09309,-8.44725],[179.09295,-8.44709],[179.09304,-8.44696],[179.09325,-8.44689],[179.09352,-8.44703],[179.09353,-8.44721],[179.09309,-8.44725]]]}},{"type":"Feature","properties":{},"geometry":{"type":"Polygon","coordinates":[[[179.09249,-8.44844],[179.09235,-8.44827],[179.09244,-8.44815],[179.09264,-8.44808],[179.09292,-8.44822],[179.09293,-8.4484],[179.09249,-8.44844]]]}},{"type":"Feature","properties":{},"geometry":{"type":"Polygon","coordinates":[[[179.0912,-8.44819],[179.09106,-8.44802],[179.09115,-8.4479],[179.09136,-8.44782],[179.09163,-8.44797],[179.09164,-8.44814],[179.0912,-8.44819]]]}},{"type":"Feature","properties":{},"geometry":{"type":"Polygon","coordinates":[[[179.08983,-8.4467],[179.08969,-8.44653],[179.08978,-8.44641],[179.08998,-8.44633],[179.09026,-8.44648],[179.09027,-8.44666],[179.08983,-8.4467]]]}},{"type":"Feature","properties":{},"geometry":{"type":"Polygon","coordinates":[[[179.09103,-8.44157],[179.09089,-8.4414],[179.09098,-8.44128],[179.09119,-8.4412],[179.09146,-8.44134],[179.09147,-8.44152],[179.09103,-8.44157]]]}},{"type":"Feature","properties":{},"geometry":{"type":"Polygon","coordinates":[[[179.08897,-8.44004],[179.08883,-8.43987],[179.08892,-8.43975],[179.08913,-8.43967],[179.0894,-8.43982],[179.08941,-8.43999],[179.08897,-8.44004]]]}},{"type":"Feature","properties":{},"geometry":{"type":"Polygon","coordinates":[[[179.08687,-8.4422],[179.08673,-8.44203],[179.08681,-8.44191],[179.08702,-8.44184],[179.0873,-8.44198],[179.08731,-8.44216],[179.08687,-8.4422]]]}},{"type":"Feature","properties":{},"geometry":{"type":"Polygon","coordinates":[[[179.0876,-8.44471],[179.08746,-8.44454],[179.08754,-8.44442],[179.08775,-8.44434],[179.08803,-8.44449],[179.08804,-8.44466],[179.0876,-8.44471]]]}},{"type":"Feature","properties":{},"geometry":{"type":"Polygon","coordinates":[[[179.08987,-8.44369],[179.08973,-8.44352],[179.08982,-8.4434],[179.09003,-8.44332],[179.0903,-8.44347],[179.09031,-8.44364],[179.08987,-8.44369]]]}},{"type":"Feature","properties":{},"geometry":{"type":"Polygon","coordinates":[[[179.12476,-8.4349],[179.12462,-8.43473],[179.12471,-8.43461],[179.12492,-8.43453],[179.12519,-8.43468],[179.1252,-8.43486],[179.12476,-8.4349]]]}},{"type":"Feature","properties":{},"geometry":{"type":"Polygon","coordinates":[[[179.14343,-8.43876],[179.14329,-8.4386],[179.14338,-8.43847],[179.14358,-8.4384],[179.14386,-8.43854],[179.14387,-8.43872],[179.14343,-8.43876]]]}},{"type":"Feature","properties":{},"geometry":{"type":"Polygon","coordinates":[[[179.16502,-8.45447],[179.16488,-8.4543],[179.16496,-8.45418],[179.16517,-8.4541],[179.16545,-8.45425],[179.16546,-8.45443],[179.16502,-8.45447]]]}},{"type":"Feature","properties":{},"geometry":{"type":"Polygon","coordinates":[[[179.16669,-8.46801],[179.16655,-8.46784],[179.16664,-8.46772],[179.16684,-8.46764],[179.16712,-8.46779],[179.16713,-8.46797],[179.16669,-8.46801]]]}},{"type":"Feature","properties":{},"geometry":{"type":"Polygon","coordinates":[[[179.17523,-8.47196],[179.17509,-8.47179],[179.17518,-8.47167],[179.17539,-8.47159],[179.17566,-8.47174],[179.17567,-8.47191],[179.17523,-8.47196]]]}},{"type":"Feature","properties":{},"geometry":{"type":"Polygon","coordinates":[[[179.18025,-8.474],[179.18011,-8.47383],[179.1802,-8.47371],[179.18041,-8.47363],[179.18068,-8.47378],[179.18069,-8.47395],[179.18025,-8.474]]]}},{"type":"Feature","properties":{},"geometry":{"type":"Polygon","coordinates":[[[179.14034,-8.55154],[179.1402,-8.55137],[179.14029,-8.55125],[179.14049,-8.55117],[179.14077,-8.55132],[179.14078,-8.55149],[179.14034,-8.55154]]]}},{"type":"Feature","properties":{},"geometry":{"type":"Polygon","coordinates":[[[179.12828,-8.52871],[179.12814,-8.52854],[179.12823,-8.52842],[179.12844,-8.52834],[179.12871,-8.52849],[179.12872,-8.52866],[179.12828,-8.52871]]]}},{"type":"Feature","properties":{},"geometry":{"type":"Polygon","coordinates":[[[179.14094,-8.54263],[179.1408,-8.54246],[179.14089,-8.54234],[179.1411,-8.54226],[179.14137,-8.54241],[179.14138,-8.54258],[179.14094,-8.54263]]]}},{"type":"Feature","properties":{},"geometry":{"type":"Polygon","coordinates":[[[179.08399,-8.58146],[179.08385,-8.58129],[179.08394,-8.58117],[179.08415,-8.58109],[179.08442,-8.58124],[179.08443,-8.58141],[179.08399,-8.58146]]]}},{"type":"Feature","properties":{},"geometry":{"type":"Polygon","coordinates":[[[179.08262,-8.58434],[179.08248,-8.58417],[179.08257,-8.58405],[179.08277,-8.58398],[179.08305,-8.58412],[179.08306,-8.5843],[179.08262,-8.58434]]]}},{"type":"Feature","properties":{},"geometry":{"type":"Polygon","coordinates":[[[179.09871,-8.59016],[179.09857,-8.58999],[179.09866,-8.58987],[179.09887,-8.58979],[179.09914,-8.58994],[179.09915,-8.59011],[179.09871,-8.59016]]]}},{"type":"Feature","properties":{},"geometry":{"type":"Polygon","coordinates":[[[179.09571,-8.58842],[179.09557,-8.58825],[179.09565,-8.58813],[179.09586,-8.58805],[179.09614,-8.5882],[179.09615,-8.58837],[179.09571,-8.58842]]]}},{"type":"Feature","properties":{},"geometry":{"type":"Polygon","coordinates":[[[179.09455,-8.58668],[179.09441,-8.58651],[179.0945,-8.58639],[179.0947,-8.58631],[179.09498,-8.58646],[179.09499,-8.58663],[179.09455,-8.58668]]]}},{"type":"Feature","properties":{},"geometry":{"type":"Polygon","coordinates":[[[179.09923,-8.57959],[179.09909,-8.57942],[179.09917,-8.5793],[179.09938,-8.57922],[179.09966,-8.57937],[179.09967,-8.57955],[179.09923,-8.57959]]]}},{"type":"Feature","properties":{},"geometry":{"type":"Polygon","coordinates":[[[179.09284,-8.58489],[179.09269,-8.58473],[179.09278,-8.5846],[179.09299,-8.58453],[179.09327,-8.58467],[179.09327,-8.58485],[179.09284,-8.58489]]]}},{"type":"Feature","properties":{},"geometry":{"type":"Polygon","coordinates":[[[179.09133,-8.58205],[179.09119,-8.58188],[179.09128,-8.58176],[179.09149,-8.58168],[179.09176,-8.58183],[179.09177,-8.58201],[179.09133,-8.58205]]]}},{"type":"Feature","properties":{},"geometry":{"type":"Polygon","coordinates":[[[179.08979,-8.57883],[179.08965,-8.57866],[179.08973,-8.57854],[179.08994,-8.57846],[179.09022,-8.5786],[179.09023,-8.57878],[179.08979,-8.57883]]]}},{"type":"Feature","properties":{},"geometry":{"type":"Polygon","coordinates":[[[179.08708,-8.58095],[179.08694,-8.58078],[179.08703,-8.58066],[179.08724,-8.58058],[179.08751,-8.58073],[179.08752,-8.5809],[179.08708,-8.58095]]]}},{"type":"Feature","properties":{},"geometry":{"type":"Polygon","coordinates":[[[179.09515,-8.6011],[179.09501,-8.60093],[179.0951,-8.60081],[179.09531,-8.60074],[179.09558,-8.60088],[179.09559,-8.60106],[179.09515,-8.6011]]]}},{"type":"Feature","properties":{},"geometry":{"type":"Polygon","coordinates":[[[179.09189,-8.61668],[179.09175,-8.61651],[179.09184,-8.61639],[179.09204,-8.61631],[179.09232,-8.61646],[179.09233,-8.61663],[179.09189,-8.61668]]]}},{"type":"Feature","properties":{},"geometry":{"type":"Polygon","coordinates":[[[179.0897,-8.61854],[179.08956,-8.61837],[179.08965,-8.61825],[179.08985,-8.61818],[179.09013,-8.61832],[179.09014,-8.6185],[179.0897,-8.61854]]]}},{"type":"Feature","properties":{},"geometry":{"type":"Polygon","coordinates":[[[179.08953,-8.61697],[179.08939,-8.6168],[179.08947,-8.61668],[179.08968,-8.61661],[179.08996,-8.61675],[179.08997,-8.61693],[179.08953,-8.61697]]]}},{"type":"Feature","properties":{},"geometry":{"type":"Polygon","coordinates":[[[179.08816,-8.61574],[179.08802,-8.61557],[179.0881,-8.61545],[179.08831,-8.61538],[179.08859,-8.61552],[179.0886,-8.6157],[179.08816,-8.61574]]]}},{"type":"Feature","properties":{},"geometry":{"type":"Polygon","coordinates":[[[179.0849,-8.60475],[179.08475,-8.60458],[179.08484,-8.60446],[179.08505,-8.60439],[179.08533,-8.60453],[179.08534,-8.60471],[179.0849,-8.60475]]]}},{"type":"Feature","properties":{},"geometry":{"type":"Polygon","coordinates":[[[179.08696,-8.60008],[179.08681,-8.59992],[179.0869,-8.5998],[179.08711,-8.59972],[179.08739,-8.59986],[179.0874,-8.60004],[179.08696,-8.60008]]]}},{"type":"Feature","properties":{},"geometry":{"type":"Polygon","coordinates":[[[179.08451,-8.59622],[179.08437,-8.59605],[179.08445,-8.59593],[179.08466,-8.59586],[179.08494,-8.596],[179.08495,-8.59618],[179.08451,-8.59622]]]}},{"type":"Feature","properties":{},"geometry":{"type":"Polygon","coordinates":[[[179.08103,-8.59147],[179.08089,-8.5913],[179.08098,-8.59118],[179.08119,-8.5911],[179.08146,-8.59125],[179.08147,-8.59143],[179.08103,-8.59147]]]}},{"type":"Feature","properties":{},"geometry":{"type":"Polygon","coordinates":[[[179.08348,-8.58905],[179.08334,-8.58888],[179.08342,-8.58876],[179.08363,-8.58869],[179.08391,-8.58883],[179.08392,-8.58901],[179.08348,-8.58905]]]}},{"type":"Feature","properties":{},"geometry":{"type":"Polygon","coordinates":[[[179.0855,-8.58994],[179.08536,-8.58977],[179.08544,-8.58965],[179.08565,-8.58958],[179.08593,-8.58972],[179.08594,-8.5899],[179.0855,-8.58994]]]}},{"type":"Feature","properties":{},"geometry":{"type":"Polygon","coordinates":[[[179.08524,-8.59151],[179.0851,-8.59134],[179.08518,-8.59122],[179.08539,-8.59115],[179.08567,-8.59129],[179.08568,-8.59147],[179.08524,-8.59151]]]}},{"type":"Feature","properties":{},"geometry":{"type":"Polygon","coordinates":[[[179.08769,-8.59164],[179.08754,-8.59147],[179.08763,-8.59135],[179.08784,-8.59127],[179.08812,-8.59142],[179.08812,-8.5916],[179.08769,-8.59164]]]}},{"type":"Feature","properties":{},"geometry":{"type":"Polygon","coordinates":[[[179.09288,-8.59151],[179.09274,-8.59134],[179.09282,-8.59122],[179.09303,-8.59115],[179.09331,-8.59129],[179.09332,-8.59147],[179.09288,-8.59151]]]}},{"type":"Feature","properties":{},"geometry":{"type":"Polygon","coordinates":[[[179.09477,-8.59232],[179.09463,-8.59215],[179.09471,-8.59203],[179.09492,-8.59195],[179.0952,-8.5921],[179.09521,-8.59228],[179.09477,-8.59232]]]}},{"type":"Feature","properties":{},"geometry":{"type":"Polygon","coordinates":[[[179.09653,-8.59652],[179.09638,-8.59635],[179.09647,-8.59623],[179.09668,-8.59615],[179.09696,-8.5963],[179.09697,-8.59648],[179.09653,-8.59652]]]}},{"type":"Feature","properties":{},"geometry":{"type":"Polygon","coordinates":[[[179.09318,-8.59711],[179.09304,-8.59695],[179.09312,-8.59683],[179.09333,-8.59675],[179.09361,-8.59689],[179.09362,-8.59707],[179.09318,-8.59711]]]}},{"type":"Feature","properties":{},"geometry":{"type":"Polygon","coordinates":[[[179.09112,-8.59941],[179.09098,-8.59924],[179.09106,-8.59912],[179.09127,-8.59904],[179.09155,-8.59919],[179.09156,-8.59936],[179.09112,-8.59941]]]}},{"type":"Feature","properties":{},"geometry":{"type":"Polygon","coordinates":[[[179.08867,-8.61273],[179.08853,-8.61256],[179.08862,-8.61244],[179.08882,-8.61236],[179.0891,-8.61251],[179.08911,-8.61269],[179.08867,-8.61273]]]}},{"type":"Feature","properties":{},"geometry":{"type":"Polygon","coordinates":[[[179.08223,-8.6129],[179.08209,-8.61273],[179.08218,-8.61261],[179.08239,-8.61253],[179.08267,-8.61268],[179.08267,-8.61286],[179.08223,-8.6129]]]}},{"type":"Feature","properties":{},"geometry":{"type":"Polygon","coordinates":[[[179.08507,-8.61243],[179.08493,-8.61226],[179.08501,-8.61214],[179.08522,-8.61207],[179.0855,-8.61221],[179.08551,-8.61239],[179.08507,-8.61243]]]}},{"type":"Feature","properties":{},"geometry":{"type":"Polygon","coordinates":[[[179.08657,-8.61078],[179.08643,-8.61061],[179.08651,-8.61049],[179.08672,-8.61041],[179.087,-8.61056],[179.08701,-8.61073],[179.08657,-8.61078]]]}},{"type":"Feature","properties":{},"geometry":{"type":"Polygon","coordinates":[[[179.08464,-8.60883],[179.0845,-8.60866],[179.08458,-8.60854],[179.08479,-8.60846],[179.08507,-8.60861],[179.08508,-8.60878],[179.08464,-8.60883]]]}},{"type":"Feature","properties":{},"geometry":{"type":"Polygon","coordinates":[[[179.08275,-8.60755],[179.08261,-8.60738],[179.08269,-8.60726],[179.0829,-8.60719],[179.08318,-8.60733],[179.08319,-8.60751],[179.08275,-8.60755]]]}},{"type":"Feature","properties":{},"geometry":{"type":"Polygon","coordinates":[[[179.07932,-8.60726],[179.07918,-8.60709],[179.07926,-8.60697],[179.07947,-8.60689],[179.07975,-8.60704],[179.07976,-8.60721],[179.07932,-8.60726]]]}},{"type":"Feature","properties":{},"geometry":{"type":"Polygon","coordinates":[[[179.07683,-8.6062],[179.07669,-8.60603],[179.07677,-8.60591],[179.07698,-8.60583],[179.07726,-8.60597],[179.07727,-8.60615],[179.07683,-8.6062]]]}},{"type":"Feature","properties":{},"geometry":{"type":"Polygon","coordinates":[[[179.07919,-8.60144],[179.07905,-8.60127],[179.07913,-8.60115],[179.07934,-8.60108],[179.07962,-8.60122],[179.07963,-8.6014],[179.07919,-8.60144]]]}},{"type":"Feature","properties":{},"geometry":{"type":"Polygon","coordinates":[[[179.07906,-8.59796],[179.07892,-8.59779],[179.079,-8.59767],[179.07921,-8.5976],[179.07949,-8.59774],[179.0795,-8.59792],[179.07906,-8.59796]]]}},{"type":"Feature","properties":{},"geometry":{"type":"Polygon","coordinates":[[[179.07927,-8.59559],[179.07913,-8.59542],[179.07922,-8.5953],[179.07943,-8.59522],[179.0797,-8.59537],[179.07971,-8.59554],[179.07927,-8.59559]]]}},{"type":"Feature","properties":{},"geometry":{"type":"Polygon","coordinates":[[[179.07786,-8.59168],[179.07772,-8.59151],[179.0778,-8.59139],[179.07801,-8.59132],[179.07829,-8.59146],[179.0783,-8.59164],[179.07786,-8.59168]]]}},{"type":"Feature","properties":{},"geometry":{"type":"Polygon","coordinates":[[[179.07425,-8.59287],[179.07411,-8.5927],[179.0742,-8.59258],[179.07441,-8.5925],[179.07468,-8.59265],[179.07469,-8.59283],[179.07425,-8.59287]]]}},{"type":"Feature","properties":{},"geometry":{"type":"Polygon","coordinates":[[[179.08013,-8.58939],[179.07999,-8.58922],[179.08008,-8.5891],[179.08028,-8.58902],[179.08056,-8.58917],[179.08057,-8.58935],[179.08013,-8.58939]]]}},{"type":"Feature","properties":{},"geometry":{"type":"Polygon","coordinates":[[[179.07756,-8.58061],[179.07742,-8.58044],[179.0775,-8.58032],[179.07771,-8.58024],[179.07799,-8.58039],[179.078,-8.58056],[179.07756,-8.58061]]]}},{"type":"Feature","properties":{},"geometry":{"type":"Polygon","coordinates":[[[179.08121,-8.57827],[179.08106,-8.57811],[179.08115,-8.57798],[179.08136,-8.57791],[179.08164,-8.57805],[179.08164,-8.57823],[179.08121,-8.57827]]]}},{"type":"Feature","properties":{},"geometry":{"type":"Polygon","coordinates":[[[179.07897,-8.58362],[179.07883,-8.58345],[179.07892,-8.58333],[179.07913,-8.58325],[179.0794,-8.5834],[179.07941,-8.58358],[179.07897,-8.58362]]]}},{"type":"Feature","properties":{},"geometry":{"type":"Polygon","coordinates":[[[179.07657,-8.58761],[179.07643,-8.58744],[179.07651,-8.58732],[179.07672,-8.58724],[179.077,-8.58739],[179.07701,-8.58757],[179.07657,-8.58761]]]}},{"type":"Feature","properties":{},"geometry":{"type":"Polygon","coordinates":[[[179.07597,-8.57806],[179.07583,-8.57789],[179.07591,-8.57777],[179.07612,-8.57769],[179.0764,-8.57784],[179.07641,-8.57802],[179.07597,-8.57806]]]}},{"type":"Feature","properties":{},"geometry":{"type":"Polygon","coordinates":[[[179.07807,-8.57696],[179.07793,-8.57679],[179.07802,-8.57667],[179.07822,-8.57659],[179.0785,-8.57674],[179.07851,-8.57691],[179.07807,-8.57696]]]}},{"type":"Feature","properties":{},"geometry":{"type":"Polygon","coordinates":[[[179.07756,-8.5753],[179.07742,-8.57513],[179.0775,-8.57501],[179.07771,-8.57494],[179.07799,-8.57508],[179.078,-8.57526],[179.07756,-8.5753]]]}},{"type":"Feature","properties":{},"geometry":{"type":"Polygon","coordinates":[[[179.07575,-8.57615],[179.07561,-8.57598],[179.0757,-8.57586],[179.07591,-8.57579],[179.07618,-8.57593],[179.07619,-8.57611],[179.07575,-8.57615]]]}},{"type":"Feature","properties":{},"geometry":{"type":"Polygon","coordinates":[[[179.07644,-8.57238],[179.0763,-8.57221],[179.07639,-8.57209],[179.07659,-8.57201],[179.07687,-8.57215],[179.07688,-8.57233],[179.07644,-8.57238]]]}},{"type":"Feature","properties":{},"geometry":{"type":"Polygon","coordinates":[[[179.07687,-8.56949],[179.07673,-8.56932],[179.07681,-8.5692],[179.07702,-8.56912],[179.0773,-8.56927],[179.07731,-8.56945],[179.07687,-8.56949]]]}},{"type":"Feature","properties":{},"geometry":{"type":"Polygon","coordinates":[[[179.07365,-8.56856],[179.07351,-8.56839],[179.0736,-8.56827],[179.0738,-8.56819],[179.07408,-8.56834],[179.07409,-8.56851],[179.07365,-8.56856]]]}},{"type":"Feature","properties":{},"geometry":{"type":"Polygon","coordinates":[[[179.07365,-8.57242],[179.07351,-8.57225],[179.0736,-8.57213],[179.0738,-8.57205],[179.07408,-8.5722],[179.07409,-8.57237],[179.07365,-8.57242]]]}},{"type":"Feature","properties":{},"geometry":{"type":"Polygon","coordinates":[[[179.07159,-8.57187],[179.07145,-8.5717],[179.07154,-8.57158],[179.07174,-8.5715],[179.07202,-8.57165],[179.07203,-8.57182],[179.07159,-8.57187]]]}},{"type":"Feature","properties":{},"geometry":{"type":"Polygon","coordinates":[[[179.06983,-8.57119],[179.06969,-8.57102],[179.06978,-8.5709],[179.06999,-8.57082],[179.07026,-8.57097],[179.07027,-8.57114],[179.06983,-8.57119]]]}},{"type":"Feature","properties":{},"geometry":{"type":"Polygon","coordinates":[[[179.06344,-8.56962],[179.0633,-8.56945],[179.06338,-8.56933],[179.06359,-8.56925],[179.06387,-8.5694],[179.06388,-8.56957],[179.06344,-8.56962]]]}},{"type":"Feature","properties":{},"geometry":{"type":"Polygon","coordinates":[[[179.06515,-8.56758],[179.06501,-8.56741],[179.0651,-8.56729],[179.06531,-8.56721],[179.06558,-8.56736],[179.06559,-8.56754],[179.06515,-8.56758]]]}},{"type":"Feature","properties":{},"geometry":{"type":"Polygon","coordinates":[[[179.06473,-8.56499],[179.06458,-8.56482],[179.06467,-8.5647],[179.06488,-8.56462],[179.06516,-8.56477],[179.06517,-8.56495],[179.06473,-8.56499]]]}},{"type":"Feature","properties":{},"geometry":{"type":"Polygon","coordinates":[[[179.08219,-8.55566],[179.08205,-8.55549],[179.08214,-8.55537],[179.08234,-8.55529],[179.08262,-8.55543],[179.08263,-8.55561],[179.08219,-8.55566]]]}},{"type":"Feature","properties":{},"geometry":{"type":"Polygon","coordinates":[[[179.08524,-8.54555],[179.0851,-8.54539],[179.08518,-8.54527],[179.08539,-8.54519],[179.08567,-8.54533],[179.08568,-8.54551],[179.08524,-8.54555]]]}},{"type":"Feature","properties":{},"geometry":{"type":"Polygon","coordinates":[[[179.07927,-8.54318],[179.07913,-8.54301],[179.07922,-8.54289],[179.07943,-8.54281],[179.0797,-8.54296],[179.07971,-8.54313],[179.07927,-8.54318]]]}},{"type":"Feature","properties":{},"geometry":{"type":"Polygon","coordinates":[[[179.07533,-8.54135],[179.07518,-8.54118],[179.07527,-8.54106],[179.07548,-8.54099],[179.07576,-8.54113],[179.07576,-8.54131],[179.07533,-8.54135]]]}},{"type":"Feature","properties":{},"geometry":{"type":"Polygon","coordinates":[[[179.07086,-8.54831],[179.07072,-8.54814],[179.07081,-8.54802],[179.07102,-8.54795],[179.07129,-8.54809],[179.0713,-8.54827],[179.07086,-8.54831]]]}},{"type":"Feature","properties":{},"geometry":{"type":"Polygon","coordinates":[[[179.08442,-8.54908],[179.08428,-8.54891],[179.08437,-8.54879],[179.08458,-8.54871],[179.08485,-8.54886],[179.08486,-8.54903],[179.08442,-8.54908]]]}},{"type":"Feature","properties":{},"geometry":{"type":"Polygon","coordinates":[[[179.07992,-8.55094],[179.07978,-8.55078],[179.07986,-8.55066],[179.08007,-8.55058],[179.08035,-8.55072],[179.08036,-8.5509],[179.07992,-8.55094]]]}},{"type":"Feature","properties":{},"geometry":{"type":"Polygon","coordinates":[[[179.07687,-8.55387],[179.07673,-8.5537],[179.07681,-8.55358],[179.07702,-8.55351],[179.0773,-8.55365],[179.07731,-8.55383],[179.07687,-8.55387]]]}},{"type":"Feature","properties":{},"geometry":{"type":"Polygon","coordinates":[[[179.07352,-8.5551],[179.07338,-8.55493],[179.07347,-8.55481],[179.07368,-8.55474],[179.07395,-8.55488],[179.07396,-8.55506],[179.07352,-8.5551]]]}},{"type":"Feature","properties":{},"geometry":{"type":"Polygon","coordinates":[[[179.06751,-8.55459],[179.06737,-8.55443],[179.06746,-8.55431],[179.06767,-8.55423],[179.06795,-8.55437],[179.06795,-8.55455],[179.06751,-8.55459]]]}},{"type":"Feature","properties":{},"geometry":{"type":"Polygon","coordinates":[[[179.06541,-8.55154],[179.06527,-8.55137],[179.06536,-8.55125],[179.06556,-8.55117],[179.06584,-8.55132],[179.06585,-8.55149],[179.06541,-8.55154]]]}},{"type":"Feature","properties":{},"geometry":{"type":"Polygon","coordinates":[[[179.06228,-8.55387],[179.06214,-8.5537],[179.06222,-8.55358],[179.06243,-8.55351],[179.06271,-8.55365],[179.06272,-8.55383],[179.06228,-8.55387]]]}},{"type":"Feature","properties":{},"geometry":{"type":"Polygon","coordinates":[[[179.06408,-8.55786],[179.06394,-8.55769],[179.06403,-8.55757],[179.06423,-8.55749],[179.06451,-8.55764],[179.06452,-8.55782],[179.06408,-8.55786]]]}},{"type":"Feature","properties":{},"geometry":{"type":"Polygon","coordinates":[[[179.06155,-8.56045],[179.06141,-8.56028],[179.06149,-8.56016],[179.0617,-8.56008],[179.06198,-8.56023],[179.06199,-8.56041],[179.06155,-8.56045]]]}},{"type":"Feature","properties":{},"geometry":{"type":"Polygon","coordinates":[[[179.05962,-8.56198],[179.05948,-8.56181],[179.05956,-8.56169],[179.05977,-8.56161],[179.06005,-8.56176],[179.06006,-8.56193],[179.05962,-8.56198]]]}},{"type":"Feature","properties":{},"geometry":{"type":"Polygon","coordinates":[[[179.05541,-8.56104],[179.05527,-8.56088],[179.05536,-8.56076],[179.05557,-8.56068],[179.05584,-8.56082],[179.05585,-8.561],[179.05541,-8.56104]]]}},{"type":"Feature","properties":{},"geometry":{"type":"Polygon","coordinates":[[[179.05777,-8.55969],[179.05763,-8.55952],[179.05772,-8.5594],[179.05793,-8.55932],[179.0582,-8.55947],[179.05821,-8.55964],[179.05777,-8.55969]]]}},{"type":"Feature","properties":{},"geometry":{"type":"Polygon","coordinates":[[[179.05842,-8.5543],[179.05828,-8.55413],[179.05836,-8.55401],[179.05857,-8.55393],[179.05885,-8.55408],[179.05886,-8.55425],[179.05842,-8.5543]]]}},{"type":"Feature","properties":{},"geometry":{"type":"Polygon","coordinates":[[[179.05704,-8.55455],[179.0569,-8.55438],[179.05699,-8.55426],[179.0572,-8.55418],[179.05747,-8.55433],[179.05748,-8.55451],[179.05704,-8.55455]]]}},{"type":"Feature","properties":{},"geometry":{"type":"Polygon","coordinates":[[[179.05554,-8.538],[179.0554,-8.53783],[179.05549,-8.53771],[179.05569,-8.53763],[179.05597,-8.53778],[179.05598,-8.53796],[179.05554,-8.538]]]}},{"type":"Feature","properties":{},"geometry":{"type":"Polygon","coordinates":[[[179.05859,-8.53715],[179.05845,-8.53698],[179.05853,-8.53686],[179.05874,-8.53678],[179.05902,-8.53693],[179.05903,-8.53711],[179.05859,-8.53715]]]}},{"type":"Feature","properties":{},"geometry":{"type":"Polygon","coordinates":[[[179.06717,-8.53826],[179.06703,-8.53809],[179.06712,-8.53797],[179.06732,-8.53789],[179.0676,-8.53803],[179.06761,-8.53821],[179.06717,-8.53826]]]}},{"type":"Feature","properties":{},"geometry":{"type":"Polygon","coordinates":[[[179.06824,-8.54097],[179.0681,-8.5408],[179.06819,-8.54068],[179.0684,-8.5406],[179.06867,-8.54075],[179.06868,-8.54093],[179.06824,-8.54097]]]}},{"type":"Feature","properties":{},"geometry":{"type":"Polygon","coordinates":[[[179.06773,-8.54191],[179.06759,-8.54174],[179.06767,-8.54162],[179.06788,-8.54154],[179.06816,-8.54168],[179.06817,-8.54186],[179.06773,-8.54191]]]}},{"type":"Feature","properties":{},"geometry":{"type":"Polygon","coordinates":[[[179.06593,-8.54123],[179.06579,-8.54106],[179.06587,-8.54094],[179.06608,-8.54086],[179.06636,-8.54101],[179.06637,-8.54118],[179.06593,-8.54123]]]}},{"type":"Feature","properties":{},"geometry":{"type":"Polygon","coordinates":[[[179.06224,-8.54017],[179.0621,-8.54],[179.06218,-8.53988],[179.06239,-8.5398],[179.06267,-8.53994],[179.06268,-8.54012],[179.06224,-8.54017]]]}},{"type":"Feature","properties":{},"geometry":{"type":"Polygon","coordinates":[[[179.06237,-8.54169],[179.06222,-8.54152],[179.06231,-8.5414],[179.06252,-8.54133],[179.0628,-8.54147],[179.0628,-8.54165],[179.06237,-8.54169]]]}},{"type":"Feature","properties":{},"geometry":{"type":"Polygon","coordinates":[[[179.07846,-8.54691],[179.07832,-8.54674],[179.0784,-8.54662],[179.07861,-8.54655],[179.07889,-8.54669],[179.0789,-8.54687],[179.07846,-8.54691]]]}},{"type":"Feature","properties":{},"geometry":{"type":"Polygon","coordinates":[[[179.07631,-8.54984],[179.07617,-8.54967],[179.07626,-8.54955],[179.07647,-8.54947],[179.07674,-8.54962],[179.07675,-8.5498],[179.07631,-8.54984]]]}},{"type":"Feature","properties":{},"geometry":{"type":"Polygon","coordinates":[[[179.07202,-8.55044],[179.07188,-8.55027],[179.07197,-8.55015],[179.07217,-8.55007],[179.07245,-8.55021],[179.07246,-8.55039],[179.07202,-8.55044]]]}},{"type":"Feature","properties":{},"geometry":{"type":"Polygon","coordinates":[[[179.07374,-8.54602],[179.0736,-8.54585],[179.07368,-8.54573],[179.07389,-8.54565],[179.07417,-8.5458],[179.07418,-8.54598],[179.07374,-8.54602]]]}},{"type":"Feature","properties":{},"geometry":{"type":"Polygon","coordinates":[[[179.06975,-8.54759],[179.06961,-8.54742],[179.06969,-8.5473],[179.0699,-8.54722],[179.07018,-8.54737],[179.07019,-8.54755],[179.06975,-8.54759]]]}},{"type":"Feature","properties":{},"geometry":{"type":"Polygon","coordinates":[[[179.06314,-8.54632],[179.063,-8.54615],[179.06308,-8.54603],[179.06329,-8.54595],[179.06357,-8.5461],[179.06358,-8.54627],[179.06314,-8.54632]]]}},{"type":"Feature","properties":{},"geometry":{"type":"Polygon","coordinates":[[[179.1327,-8.50354],[179.13256,-8.50337],[179.13265,-8.50325],[179.13286,-8.50317],[179.13313,-8.50332],[179.13314,-8.50349],[179.1327,-8.50354]]]}},{"type":"Feature","properties":{},"geometry":{"type":"Polygon","coordinates":[[[179.12,-8.50006],[179.11986,-8.49989],[179.11994,-8.49977],[179.12015,-8.49969],[179.12043,-8.49984],[179.12044,-8.50001],[179.12,-8.50006]]]}},{"type":"Feature","properties":{},"geometry":{"type":"Polygon","coordinates":[[[179.14875,-8.51051],[179.14883,-8.50986],[179.14927,-8.5092],[179.1498,-8.50896],[179.15072,-8.50883],[179.15147,-8.50926],[179.1513,-8.5097],[179.1506,-8.51009],[179.1495,-8.51083],[179.14896,-8.51082],[179.14875,-8.51051]]]}},{"type":"Feature","properties":{},"geometry":{"type":"Polygon","coordinates":[[[179.16504,-8.44082],[179.16523,-8.44066],[179.16524,-8.44059],[179.16513,-8.44059],[179.1651,-8.44053],[179.16528,-8.44019],[179.1653,-8.44011],[179.16526,-8.44005],[179.16534,-8.44],[179.16542,-8.44001],[179.16547,-8.44011],[179.16563,-8.44014],[179.16565,-8.44027],[179.16584,-8.44059],[179.16582,-8.44066],[179.16555,-8.44088],[179.16529,-8.44084],[179.1653,-8.44092],[179.16525,-8.44096],[179.16519,-8.44096],[179.16504,-8.44082]]]}},{"type":"Feature","properties":{},"geometry":{"type":"Polygon","coordinates":[[[179.16884,-8.44009],[179.1688,-8.44021],[179.16859,-8.4403],[179.16824,-8.44025],[179.16815,-8.44018],[179.16816,-8.44011],[179.16834,-8.43999],[179.16865,-8.43991],[179.16874,-8.43997],[179.16873,-8.44002],[179.16879,-8.44003],[179.16878,-8.44008],[179.16884,-8.44009]]]}},{"type":"Feature","properties":{},"geometry":{"type":"Polygon","coordinates":[[[179.19005,-8.52148],[179.18973,-8.52154],[179.18935,-8.52152],[179.18923,-8.52109],[179.18959,-8.52086],[179.18995,-8.52079],[179.19056,-8.52075],[179.1907,-8.52095],[179.19074,-8.52116],[179.19058,-8.52129],[179.19005,-8.52148]]]}},{"type":"Feature","properties":{},"geometry":{"type":"Polygon","coordinates":[[[179.19011,-8.51913],[179.18972,-8.51898],[179.18963,-8.5189],[179.18946,-8.51852],[179.18953,-8.51814],[179.18974,-8.51784],[179.18987,-8.51778],[179.19047,-8.51771],[179.19088,-8.51782],[179.19107,-8.51799],[179.19115,-8.5182],[179.19112,-8.51858],[179.19104,-8.51871],[179.19092,-8.51884],[179.19049,-8.51909],[179.19011,-8.51913]]]}},{"type":"Feature","properties":{},"geometry":{"type":"Polygon","coordinates":[[[179.19153,-8.51661],[179.19124,-8.51658],[179.1911,-8.51649],[179.19083,-8.51619],[179.19079,-8.51598],[179.19084,-8.51592],[179.19115,-8.51585],[179.19138,-8.51589],[179.19175,-8.51608],[179.19183,-8.51622],[179.19185,-8.51636],[179.19171,-8.51651],[179.19153,-8.51661]]]}},{"type":"Feature","properties":{},"geometry":{"type":"Polygon","coordinates":[[[179.18846,-8.51652],[179.18867,-8.51659],[179.18875,-8.51671],[179.18877,-8.51719],[179.18874,-8.51737],[179.18861,-8.51759],[179.18834,-8.5178],[179.18813,-8.51785],[179.18771,-8.51784],[179.1876,-8.51779],[179.1875,-8.51751],[179.1876,-8.51713],[179.18812,-8.51685],[179.18834,-8.51668],[179.18846,-8.51652]]]}},{"type":"Feature","properties":{},"geometry":{"type":"Polygon","coordinates":[[[179.1915,-8.51464],[179.19111,-8.5146],[179.19101,-8.51454],[179.19092,-8.5142],[179.19101,-8.51391],[179.1912,-8.51375],[179.19139,-8.5137],[179.19162,-8.51374],[179.19175,-8.51381],[179.19195,-8.51419],[179.19189,-8.51437],[179.19172,-8.51443],[179.19163,-8.51457],[179.1915,-8.51464]]]}},{"type":"Feature","properties":{},"geometry":{"type":"Polygon","coordinates":[[[179.19472,-8.51236],[179.19439,-8.51232],[179.19432,-8.51225],[179.19431,-8.51189],[179.1946,-8.51182],[179.19487,-8.51185],[179.19491,-8.51194],[179.1949,-8.51209],[179.19478,-8.51227],[179.19472,-8.51236]]]}},{"type":"Feature","properties":{},"geometry":{"type":"MultiPolygon","coordinates":[[[[179.12778,-8.42399],[179.13341,-8.42504],[179.13723,-8.4263],[179.14184,-8.42648],[179.14756,-8.42584],[179.15211,-8.42644],[179.16425,-8.42941],[179.16677,-8.43076],[179.16893,-8.43211],[179.17047,-8.43351],[179.17159,-8.43483],[179.17311,-8.43793],[179.17371,-8.44009],[179.17432,-8.44155],[179.17555,-8.44281],[179.17711,-8.44412],[179.17865,-8.44609],[179.18254,-8.45313],[179.18508,-8.45829],[179.18645,-8.46133],[179.18745,-8.4645],[179.18822,-8.46792],[179.18918,-8.46986],[179.19084,-8.47196],[179.19202,-8.47447],[179.19331,-8.47799],[179.19358,-8.47987],[179.19331,-8.4826],[179.19354,-8.48425],[179.19333,-8.48663],[179.19338,-8.48867],[179.19391,-8.49121],[179.19511,-8.49515],[179.1964,-8.50089],[179.19821,-8.50574],[179.1997,-8.50909],[179.20139,-8.51367],[179.20378,-8.5185],[179.20397,-8.51984],[179.20358,-8.52096],[179.20296,-8.5224],[179.20213,-8.52318],[179.1963,-8.52764],[179.19225,-8.53089],[179.18836,-8.53434],[179.18355,-8.53848],[179.18101,-8.53982],[179.17892,-8.54024],[179.17707,-8.54045],[179.17566,-8.54048],[179.17423,-8.54085],[179.17257,-8.54155],[179.17034,-8.54267],[179.16785,-8.54488],[179.16542,-8.54728],[179.16352,-8.54849],[179.16063,-8.55003],[179.1574,-8.55153],[179.15569,-8.55246],[179.15419,-8.55361],[179.15151,-8.55602],[179.14926,-8.5579],[179.14718,-8.55917],[179.1443,-8.5599],[179.14252,-8.56047],[179.14062,-8.56172],[179.13975,-8.56287],[179.13797,-8.56483],[179.137,-8.56551],[179.13563,-8.56618],[179.13176,-8.56655],[179.13,-8.56734],[179.12884,-8.56757],[179.12832,-8.56718],[179.12831,-8.56644],[179.12866,-8.56585],[179.12965,-8.56515],[179.13187,-8.56396],[179.13386,-8.56351],[179.13635,-8.56206],[179.13782,-8.56099],[179.1403,-8.55896],[179.14588,-8.55404],[179.14707,-8.55349],[179.14967,-8.5534],[179.15051,-8.55325],[179.15552,-8.54947],[179.15856,-8.54774],[179.16071,-8.54602],[179.16297,-8.54411],[179.16626,-8.54276],[179.16778,-8.54192],[179.16972,-8.54041],[179.17083,-8.53999],[179.17154,-8.53985],[179.17213,-8.53985],[179.17271,-8.53966],[179.17434,-8.53893],[179.1793,-8.53614],[179.18071,-8.53568],[179.1816,-8.53522],[179.18721,-8.53081],[179.18906,-8.52976],[179.19046,-8.52831],[179.19149,-8.52622],[179.19237,-8.52387],[179.19252,-8.52259],[179.19248,-8.52149],[179.19286,-8.52039],[179.19388,-8.51896],[179.19541,-8.51794],[179.19673,-8.51681],[179.19738,-8.51615],[179.19752,-8.51524],[179.19719,-8.51276],[179.19719,-8.51026],[179.19671,-8.50771],[179.19508,-8.50342],[179.19463,-8.50183],[179.1939,-8.49965],[179.1936,-8.49849],[179.19303,-8.49676],[179.19195,-8.49215],[179.19128,-8.48973],[179.1909,-8.48727],[179.18987,-8.47914],[179.18913,-8.47586],[179.18837,-8.47386],[179.18464,-8.46656],[179.18216,-8.46008],[179.18038,-8.45624],[179.17854,-8.45269],[179.17737,-8.45064],[179.17617,-8.44947],[179.17519,-8.44874],[179.17464,-8.44781],[179.17397,-8.44605],[179.17337,-8.44417],[179.17281,-8.44334],[179.17151,-8.44206],[179.17047,-8.44078],[179.17054,-8.44026],[179.17083,-8.43965],[179.17081,-8.43935],[179.17055,-8.43912],[179.17029,-8.43906],[179.17019,-8.43917],[179.16985,-8.43989],[179.16952,-8.43976],[179.16884,-8.43935],[179.16684,-8.43832],[179.1652,-8.43718],[179.16435,-8.43598],[179.16252,-8.43473],[179.15998,-8.43343],[179.15763,-8.43186],[179.15458,-8.43067],[179.14661,-8.42929],[179.14282,-8.42935],[179.13752,-8.42932],[179.13509,-8.42876],[179.13309,-8.42801],[179.13164,-8.42801],[179.12969,-8.42868],[179.12821,-8.42964],[179.12636,-8.43074],[179.12343,-8.43203],[179.12141,-8.43214],[179.12012,-8.43211],[179.11839,-8.43141],[179.11724,-8.43133],[179.11267,-8.43143],[179.11078,-8.4318],[179.10956,-8.43176],[179.10871,-8.43118],[179.10822,-8.43013],[179.10821,-8.42941],[179.10876,-8.42835],[179.11016,-8.42728],[179.11661,-8.42516],[179.12293,-8.42399],[179.12778,-8.42399]],[[179.17242,-8.54023],[179.17204,-8.54023],[179.17199,-8.54031],[179.17274,-8.5405],[179.1748,-8.53988],[179.17649,-8.53957],[179.1788,-8.53928],[179.1809,-8.53856],[179.18205,-8.53794],[179.18279,-8.53741],[179.1837,-8.53664],[179.18589,-8.53505],[179.18691,-8.53417],[179.18822,-8.53316],[179.18886,-8.53255],[179.19141,-8.5304],[179.19338,-8.52891],[179.1963,-8.52659],[179.20084,-8.52335],[179.20155,-8.52269],[179.202,-8.52214],[179.2023,-8.52168],[179.20275,-8.52058],[179.20285,-8.51978],[179.20275,-8.519],[179.20245,-8.51792],[179.20173,-8.51601],[179.20028,-8.51278],[179.19851,-8.50853],[179.19774,-8.50645],[179.19678,-8.50408],[179.19552,-8.50049],[179.19472,-8.49701],[179.1943,-8.49489],[179.19319,-8.49132],[179.19284,-8.48942],[179.19268,-8.48722],[179.19262,-8.48503],[179.19274,-8.48117],[179.19269,-8.48085],[179.19272,-8.48027],[179.19261,-8.47903],[179.19244,-8.47805],[179.19217,-8.47701],[179.19151,-8.47506],[179.19109,-8.47407],[179.19052,-8.47304],[179.18987,-8.47195],[179.18924,-8.47108],[179.18812,-8.4693],[179.18749,-8.46812],[179.18683,-8.46632],[179.18598,-8.46345],[179.18558,-8.46235],[179.18478,-8.46046],[179.18428,-8.45909],[179.18298,-8.45646],[179.18186,-8.45401],[179.18066,-8.45153],[179.17897,-8.44839],[179.17869,-8.44807],[179.17845,-8.44791],[179.17779,-8.44762],[179.17773,-8.44764],[179.17769,-8.44776],[179.17786,-8.4482],[179.17836,-8.44889],[179.17877,-8.44958],[179.17894,-8.44979],[179.17953,-8.45091],[179.1798,-8.4512],[179.17991,-8.45141],[179.18033,-8.45238],[179.1804,-8.45271],[179.18129,-8.4544],[179.1829,-8.4577],[179.18313,-8.45828],[179.18346,-8.45884],[179.18374,-8.45959],[179.18383,-8.46003],[179.18399,-8.46029],[179.18413,-8.46075],[179.18427,-8.461],[179.18438,-8.46162],[179.18487,-8.46311],[179.185,-8.46383],[179.18523,-8.46409],[179.18547,-8.46465],[179.18612,-8.4666],[179.18621,-8.46713],[179.18632,-8.46729],[179.18642,-8.46767],[179.18668,-8.46821],[179.18763,-8.46985],[179.18807,-8.47033],[179.18817,-8.47053],[179.18854,-8.47095],[179.18869,-8.47118],[179.18891,-8.47138],[179.18931,-8.47163],[179.18956,-8.47203],[179.19016,-8.47333],[179.1905,-8.47428],[179.19085,-8.47544],[179.1912,-8.47742],[179.1913,-8.47771],[179.19149,-8.47869],[179.19173,-8.4811],[179.19178,-8.48313],[179.19183,-8.48327],[179.19176,-8.48362],[179.19181,-8.48377],[179.19172,-8.48429],[179.19172,-8.48537],[179.19168,-8.48553],[179.19167,-8.48587],[179.19191,-8.48706],[179.19196,-8.48826],[179.19223,-8.48948],[179.19262,-8.49158],[179.19315,-8.49401],[179.19356,-8.4952],[179.19399,-8.49685],[179.19412,-8.49755],[179.1941,-8.49791],[179.19422,-8.49825],[179.19442,-8.49853],[179.19446,-8.49868],[179.19448,-8.49922],[179.19467,-8.4997],[179.195,-8.50099],[179.19505,-8.50134],[179.19531,-8.5022],[179.19529,-8.5023],[179.19541,-8.50238],[179.19577,-8.50338],[179.1962,-8.50487],[179.19659,-8.50576],[179.19699,-8.50701],[179.19752,-8.50812],[179.19779,-8.50901],[179.19829,-8.51001],[179.1984,-8.51059],[179.19847,-8.51213],[179.19868,-8.51294],[179.19904,-8.51352],[179.1991,-8.51389],[179.19887,-8.51508],[179.19875,-8.51548],[179.19847,-8.51615],[179.19836,-8.5166],[179.19823,-8.51676],[179.19801,-8.5169],[179.1978,-8.51681],[179.19751,-8.51679],[179.19719,-8.51665],[179.19716,-8.51668],[179.19739,-8.51682],[179.19751,-8.51698],[179.19777,-8.51711],[179.19781,-8.51722],[179.19776,-8.5175],[179.1977,-8.51757],[179.19763,-8.51757],[179.19725,-8.51734],[179.19731,-8.51722],[179.19714,-8.51711],[179.19511,-8.52007],[179.19466,-8.52082],[179.194,-8.52222],[179.19383,-8.52264],[179.19395,-8.52275],[179.19337,-8.52357],[179.19292,-8.52447],[179.19262,-8.52476],[179.19231,-8.52464],[179.19222,-8.52468],[179.19239,-8.52485],[179.19285,-8.52502],[179.19292,-8.52512],[179.1927,-8.52574],[179.19248,-8.52608],[179.19225,-8.52662],[179.19179,-8.52743],[179.19152,-8.52779],[179.19112,-8.52875],[179.19073,-8.52926],[179.18984,-8.53016],[179.18953,-8.53057],[179.18873,-8.53123],[179.18847,-8.53149],[179.18824,-8.53181],[179.18735,-8.53251],[179.18716,-8.5326],[179.18666,-8.53305],[179.18649,-8.53328],[179.18627,-8.53344],[179.18595,-8.53379],[179.1856,-8.53397],[179.18522,-8.53446],[179.18488,-8.5347],[179.18374,-8.53572],[179.18351,-8.53586],[179.18293,-8.53636],[179.18139,-8.53741],[179.18065,-8.53777],[179.17987,-8.53826],[179.17935,-8.53847],[179.17917,-8.53848],[179.17875,-8.53863],[179.17848,-8.53864],[179.1781,-8.53878],[179.17797,-8.53875],[179.17798,-8.53863],[179.17794,-8.53857],[179.17778,-8.53853],[179.17757,-8.53861],[179.17731,-8.53857],[179.17671,-8.53875],[179.17657,-8.53871],[179.17611,-8.53887],[179.17576,-8.53887],[179.1757,-8.53893],[179.1751,-8.53906],[179.1751,-8.53911],[179.17463,-8.53928],[179.17437,-8.53949],[179.17402,-8.53966],[179.17343,-8.53984],[179.17325,-8.53993],[179.17288,-8.53999],[179.17242,-8.54023]],[[179.16872,-8.43726],[179.16887,-8.43723],[179.16926,-8.43774],[179.16946,-8.43779],[179.1698,-8.43809],[179.1699,-8.4383],[179.17055,-8.43887],[179.17052,-8.43899],[179.1706,-8.43902],[179.17061,-8.43895],[179.17071,-8.43895],[179.17086,-8.43904],[179.17108,-8.43922],[179.17141,-8.43961],[179.1719,-8.44001],[179.17227,-8.44068],[179.17239,-8.44067],[179.17285,-8.44118],[179.17318,-8.44171],[179.17329,-8.44199],[179.17325,-8.44211],[179.17328,-8.44223],[179.17353,-8.44223],[179.17359,-8.44212],[179.17371,-8.4421],[179.17378,-8.44221],[179.17377,-8.44233],[179.17358,-8.44264],[179.17361,-8.44276],[179.17383,-8.443],[179.17404,-8.4434],[179.17415,-8.4434],[179.17442,-8.44312],[179.17455,-8.44311],[179.1744,-8.44285],[179.17392,-8.44229],[179.17384,-8.44212],[179.17367,-8.44194],[179.17316,-8.44093],[179.17288,-8.44049],[179.17254,-8.43973],[179.17202,-8.43815],[179.17132,-8.43679],[179.17118,-8.43676],[179.17071,-8.43716],[179.1707,-8.43729],[179.17063,-8.43738],[179.17033,-8.43744],[179.17026,-8.43728],[179.17004,-8.4373],[179.16971,-8.43717],[179.16963,-8.43697],[179.16898,-8.43687],[179.16876,-8.43671],[179.16873,-8.43663],[179.16836,-8.4363],[179.16821,-8.43637],[179.16808,-8.43635],[179.16805,-8.43629],[179.16825,-8.43622],[179.1681,-8.43604],[179.16796,-8.43595],[179.16778,-8.43587],[179.16755,-8.43598],[179.16753,-8.43611],[179.16763,-8.43632],[179.1677,-8.43679],[179.16788,-8.43679],[179.16796,-8.43688],[179.16838,-8.43703],[179.16847,-8.43716],[179.16872,-8.43726]],[[179.16713,-8.4352],[179.1676,-8.4345],[179.16759,-8.43409],[179.16753,-8.4339],[179.16727,-8.43378],[179.16679,-8.43371],[179.16593,-8.43338],[179.16604,-8.43358],[179.16564,-8.43398],[179.16536,-8.43404],[179.16531,-8.43409],[179.16526,-8.43421],[179.16531,-8.43437],[179.16555,-8.43453],[179.16589,-8.43466],[179.16614,-8.4348],[179.16647,-8.43519],[179.16666,-8.43531],[179.16699,-8.43533],[179.16713,-8.4352]],[[179.1586,-8.54937],[179.15813,-8.54959],[179.15794,-8.54942],[179.15785,-8.54951],[179.15786,-8.54965],[179.15804,-8.54979],[179.15849,-8.54994],[179.15906,-8.54988],[179.16082,-8.54891],[179.16396,-8.54699],[179.16484,-8.54629],[179.165,-8.54603],[179.16515,-8.54562],[179.16519,-8.5453],[179.1651,-8.54506],[179.16502,-8.54499],[179.16489,-8.545],[179.16472,-8.54523],[179.16462,-8.54564],[179.16396,-8.54613],[179.16337,-8.54648],[179.16233,-8.54689],[179.1607,-8.5481],[179.16064,-8.54809],[179.16052,-8.54824],[179.1598,-8.54884],[179.15913,-8.54928],[179.1586,-8.54937]],[[179.142,-8.56001],[179.14208,-8.55974],[179.14201,-8.55967],[179.1423,-8.55956],[179.1424,-8.55957],[179.14244,-8.55966],[179.14253,-8.55969],[179.14267,-8.55967],[179.14537,-8.55879],[179.14578,-8.55874],[179.14608,-8.55865],[179.14761,-8.55793],[179.1482,-8.55755],[179.14898,-8.55692],[179.14962,-8.55627],[179.14993,-8.55586],[179.15011,-8.55547],[179.15017,-8.55518],[179.15017,-8.55499],[179.15005,-8.55472],[179.15011,-8.55464],[179.15009,-8.55454],[179.15006,-8.55452],[179.14987,-8.55472],[179.14959,-8.55535],[179.14948,-8.55544],[179.14902,-8.55561],[179.14852,-8.55589],[179.14797,-8.55607],[179.14769,-8.55628],[179.14692,-8.55659],[179.14558,-8.55724],[179.1455,-8.55741],[179.14509,-8.55769],[179.14473,-8.55768],[179.14457,-8.55759],[179.14444,-8.55775],[179.14375,-8.55821],[179.14346,-8.55834],[179.14299,-8.55836],[179.14204,-8.559],[179.14156,-8.55921],[179.14083,-8.55972],[179.14076,-8.55979],[179.14075,-8.55988],[179.14091,-8.56002],[179.14155,-8.55999],[179.14173,-8.55988],[179.14177,-8.55998],[179.1415,-8.56004],[179.1411,-8.56027],[179.14055,-8.56047],[179.14025,-8.5607],[179.14007,-8.56077],[179.13998,-8.56073],[179.13989,-8.56077],[179.13995,-8.56085],[179.14015,-8.56093],[179.14036,-8.56092],[179.14121,-8.56043],[179.14178,-8.56017],[179.142,-8.56001]],[[179.13636,-8.56362],[179.13568,-8.56399],[179.13534,-8.56427],[179.13481,-8.56454],[179.13418,-8.56468],[179.13302,-8.56473],[179.13256,-8.56492],[179.13228,-8.56492],[179.13148,-8.56512],[179.13123,-8.56526],[179.13105,-8.5653],[179.12977,-8.56595],[179.12973,-8.56605],[179.1298,-8.56621],[179.12996,-8.5661],[179.13033,-8.56616],[179.13132,-8.56593],[179.13185,-8.56575],[179.13216,-8.56575],[179.13303,-8.5656],[179.13379,-8.56559],[179.13481,-8.56526],[179.13534,-8.56489],[179.13561,-8.56458],[179.13577,-8.56451],[179.13592,-8.56434],[179.13615,-8.5639],[179.13637,-8.56374],[179.13636,-8.56362]],[[179.11805,-8.42859],[179.11841,-8.42879],[179.11879,-8.4288],[179.11968,-8.42853],[179.12041,-8.42852],[179.12072,-8.42847],[179.12192,-8.42847],[179.12215,-8.42855],[179.12254,-8.42889],[179.12283,-8.4289],[179.12309,-8.42879],[179.12323,-8.42857],[179.12329,-8.42802],[179.12326,-8.42778],[179.12337,-8.42754],[179.12331,-8.42711],[179.12312,-8.42682],[179.12257,-8.42646],[179.12235,-8.42638],[179.12202,-8.42638],[179.12128,-8.42665],[179.12067,-8.42717],[179.12036,-8.4276],[179.12003,-8.42783],[179.11912,-8.42812],[179.11851,-8.42844],[179.11839,-8.42844],[179.11825,-8.42837],[179.11804,-8.42834],[179.11796,-8.42847],[179.11805,-8.42859]],[[179.1178,-8.42811],[179.11759,-8.42774],[179.1169,-8.42733],[179.11677,-8.42729],[179.11625,-8.42694],[179.11583,-8.42693],[179.11567,-8.42708],[179.11558,-8.42722],[179.11561,-8.42751],[179.11569,-8.42769],[179.11636,-8.42805],[179.11655,-8.42811],[179.11768,-8.4282],[179.1178,-8.42811]]],[[[179.15683,-8.48412],[179.1557,-8.48374],[179.15547,-8.48339],[179.15545,-8.48264],[179.15598,-8.48189],[179.15654,-8.4816],[179.15785,-8.48122],[179.15851,-8.48133],[179.15955,-8.48176],[179.15983,-8.48243],[179.15979,-8.48314],[179.15927,-8.4836],[179.15799,-8.4839],[179.15683,-8.48412]]],[[[179.157,-8.45636],[179.15664,-8.45637],[179.15646,-8.45599],[179.15676,-8.45539],[179.15718,-8.455],[179.15759,-8.45488],[179.15779,-8.45488],[179.15798,-8.45506],[179.15792,-8.45554],[179.15737,-8.45615],[179.157,-8.45636]]],[[[179.14195,-8.46909],[179.14108,-8.46921],[179.1406,-8.46918],[179.14042,-8.46846],[179.14058,-8.46814],[179.1426,-8.46716],[179.14313,-8.46716],[179.14361,-8.46751],[179.14351,-8.46823],[179.14195,-8.46909]]],[[[179.13304,-8.49187],[179.13222,-8.49156],[179.13205,-8.49133],[179.13209,-8.49088],[179.13246,-8.49053],[179.13364,-8.49015],[179.1343,-8.4901],[179.13503,-8.49022],[179.13538,-8.4906],[179.1356,-8.49127],[179.13562,-8.49189],[179.13496,-8.49212],[179.13304,-8.49187]]],[[[179.12712,-8.45927],[179.12745,-8.4591],[179.12812,-8.4591],[179.12819,-8.45929],[179.12787,-8.45975],[179.12737,-8.45989],[179.1269,-8.45953],[179.12712,-8.45927]]],[[[179.12019,-8.57559],[179.12034,-8.57646],[179.11937,-8.57826],[179.11887,-8.5801],[179.11802,-8.58198],[179.11741,-8.58273],[179.11504,-8.58363],[179.11392,-8.58386],[179.11306,-8.58373],[179.1128,-8.5833],[179.11277,-8.58258],[179.1131,-8.58187],[179.11391,-8.58096],[179.11524,-8.58026],[179.1158,-8.57981],[179.11633,-8.57844],[179.11706,-8.57763],[179.11773,-8.57643],[179.11846,-8.5755],[179.11937,-8.57522],[179.11977,-8.57534],[179.12019,-8.57559]]],[[[179.06253,-8.54774],[179.06512,-8.54963],[179.06536,-8.55024],[179.06522,-8.55057],[179.06454,-8.55077],[179.06323,-8.5508],[179.0625,-8.55063],[179.06216,-8.55077],[179.06206,-8.55094],[179.06219,-8.55141],[179.06213,-8.55168],[179.06155,-8.55187],[179.06074,-8.55156],[179.05955,-8.55129],[179.05707,-8.55202],[179.05436,-8.55344],[179.05293,-8.55513],[179.05209,-8.55677],[179.05204,-8.55797],[179.05314,-8.55984],[179.05479,-8.56147],[179.05603,-8.56362],[179.05806,-8.56566],[179.06077,-8.56891],[179.06204,-8.56974],[179.06353,-8.56998],[179.06531,-8.57064],[179.067,-8.57186],[179.06954,-8.57243],[179.0713,-8.57315],[179.07292,-8.57429],[179.0735,-8.57528],[179.07367,-8.57609],[179.07346,-8.57655],[179.07229,-8.57669],[179.07082,-8.57759],[179.06938,-8.57875],[179.06907,-8.58105],[179.0706,-8.58444],[179.07155,-8.58805],[179.07203,-8.58947],[179.07095,-8.59102],[179.07067,-8.5929],[179.07141,-8.5947],[179.07287,-8.59744],[179.0739,-8.59887],[179.07426,-8.59978],[179.07391,-8.60078],[179.07388,-8.60148],[179.07416,-8.60226],[179.07426,-8.6029],[179.07391,-8.60395],[179.07409,-8.60463],[179.07466,-8.60565],[179.07618,-8.60675],[179.07873,-8.60874],[179.08065,-8.61183],[179.08199,-8.61457],[179.08315,-8.61531],[179.08418,-8.61562],[179.08514,-8.61581],[179.08557,-8.61634],[179.08581,-8.61729],[179.08669,-8.61811],[179.08684,-8.61848],[179.08736,-8.61875],[179.08778,-8.61877],[179.08849,-8.61923],[179.08899,-8.62004],[179.08922,-8.62073],[179.08923,-8.62105],[179.08944,-8.6213],[179.09034,-8.62149],[179.09101,-8.62157],[179.09157,-8.62122],[179.09202,-8.62114],[179.09294,-8.62119],[179.09371,-8.62062],[179.09421,-8.62037],[179.09504,-8.62027],[179.09532,-8.6199],[179.09543,-8.61671],[179.09558,-8.6144],[179.09603,-8.61312],[179.09674,-8.61157],[179.09902,-8.60785],[179.09943,-8.60672],[179.09964,-8.60583],[179.09942,-8.60466],[179.09903,-8.60308],[179.09892,-8.60138],[179.09891,-8.59955],[179.09947,-8.59764],[179.1023,-8.59253],[179.10371,-8.59071],[179.10467,-8.58967],[179.10555,-8.58957],[179.10577,-8.58972],[179.10588,-8.59041],[179.1029,-8.59534],[179.1018,-8.59702],[179.10119,-8.59871],[179.10117,-8.60086],[179.1015,-8.60376],[179.10194,-8.60611],[179.10178,-8.60749],[179.10111,-8.60879],[179.09982,-8.61033],[179.09845,-8.61243],[179.09791,-8.61358],[179.09773,-8.61543],[179.0978,-8.61818],[179.09834,-8.61973],[179.09941,-8.62176],[179.10191,-8.62557],[179.10386,-8.62897],[179.10448,-8.63175],[179.10467,-8.63317],[179.10458,-8.63366],[179.10426,-8.63412],[179.1035,-8.63453],[179.09908,-8.63546],[179.09693,-8.63616],[179.09432,-8.6373],[179.09117,-8.63934],[179.08649,-8.64265],[179.08344,-8.64473],[179.08152,-8.64587],[179.08015,-8.64601],[179.07936,-8.64592],[179.07798,-8.64539],[179.07644,-8.64507],[179.07463,-8.6444],[179.07348,-8.64348],[179.07254,-8.64239],[179.072,-8.64136],[179.07172,-8.64058],[179.0717,-8.63916],[179.07214,-8.63702],[179.0733,-8.63272],[179.07449,-8.62949],[179.07702,-8.62496],[179.07702,-8.6232],[179.07624,-8.6208],[179.07609,-8.61862],[179.07475,-8.61491],[179.07336,-8.61151],[179.07275,-8.6083],[179.07258,-8.60614],[179.07197,-8.60484],[179.07018,-8.60246],[179.06858,-8.59825],[179.06699,-8.59338],[179.0662,-8.59013],[179.06525,-8.58524],[179.06389,-8.58179],[179.06253,-8.57891],[179.05873,-8.57285],[179.0524,-8.56546],[179.04972,-8.56174],[179.04817,-8.55824],[179.047,-8.55527],[179.04716,-8.55334],[179.04841,-8.55103],[179.05092,-8.54967],[179.05336,-8.54909],[179.05806,-8.54755],[179.05996,-8.54659],[179.06065,-8.54645],[179.06121,-8.5466],[179.06253,-8.54774]],[[179.09734,-8.61109],[179.09691,-8.61181],[179.0968,-8.61231],[179.0965,-8.61287],[179.09644,-8.61334],[179.09607,-8.61439],[179.09614,-8.61496],[179.09611,-8.61522],[179.09589,-8.61559],[179.09584,-8.61586],[179.09599,-8.61612],[179.09586,-8.61629],[179.09591,-8.61649],[179.09577,-8.6168],[179.09594,-8.61725],[179.09602,-8.61772],[179.096,-8.61844],[179.09612,-8.61864],[179.09623,-8.6192],[179.09682,-8.62098],[179.09697,-8.62124],[179.09712,-8.62168],[179.09753,-8.62222],[179.09754,-8.62243],[179.09768,-8.62284],[179.09763,-8.62291],[179.09767,-8.62299],[179.09775,-8.62301],[179.09784,-8.62327],[179.09788,-8.62322],[179.09793,-8.62325],[179.09818,-8.62363],[179.09821,-8.62379],[179.09817,-8.62391],[179.09821,-8.62399],[179.09832,-8.62407],[179.0985,-8.62437],[179.09854,-8.6246],[179.09863,-8.62478],[179.09888,-8.62513],[179.09905,-8.62529],[179.09906,-8.62546],[179.09929,-8.62574],[179.09929,-8.62589],[179.09973,-8.62619],[179.1001,-8.62686],[179.10033,-8.62699],[179.10049,-8.62741],[179.10071,-8.62769],[179.10067,-8.62792],[179.10054,-8.62805],[179.10044,-8.62828],[179.10034,-8.62914],[179.10019,-8.62943],[179.09992,-8.62979],[179.09976,-8.62995],[179.09899,-8.62982],[179.09853,-8.63005],[179.09843,-8.63016],[179.09839,-8.63034],[179.09849,-8.63043],[179.09875,-8.63044],[179.09905,-8.63034],[179.09918,-8.63016],[179.09927,-8.63017],[179.09938,-8.6303],[179.09951,-8.63035],[179.09987,-8.6304],[179.10055,-8.63022],[179.10077,-8.63021],[179.10103,-8.63029],[179.10137,-8.63048],[179.10194,-8.63052],[179.10204,-8.63069],[179.1021,-8.63106],[179.10204,-8.63113],[179.10196,-8.63114],[179.10176,-8.63108],[179.10168,-8.63118],[179.10171,-8.63132],[179.10195,-8.63154],[179.10214,-8.63161],[179.10274,-8.6317],[179.10294,-8.6318],[179.10304,-8.6318],[179.10317,-8.63169],[179.10326,-8.63146],[179.10324,-8.63111],[179.1031,-8.6301],[179.10291,-8.62983],[179.10265,-8.62877],[179.10217,-8.62765],[179.10148,-8.62672],[179.10038,-8.62482],[179.09944,-8.62357],[179.0979,-8.62105],[179.09756,-8.62009],[179.09726,-8.61959],[179.09708,-8.61909],[179.09678,-8.61762],[179.09663,-8.61645],[179.09668,-8.61521],[179.09677,-8.61466],[179.09712,-8.61308],[179.09734,-8.61252],[179.09823,-8.61096],[179.09868,-8.61036],[179.09967,-8.60924],[179.10001,-8.60876],[179.10053,-8.60773],[179.10071,-8.60697],[179.10076,-8.60567],[179.10066,-8.60413],[179.10043,-8.60251],[179.10031,-8.60112],[179.10026,-8.59799],[179.10011,-8.59764],[179.10002,-8.59762],[179.09995,-8.59764],[179.09991,-8.59775],[179.09988,-8.5988],[179.09975,-8.5993],[179.09958,-8.59964],[179.09941,-8.60141],[179.09943,-8.6019],[179.09963,-8.60298],[179.09986,-8.60389],[179.09993,-8.60439],[179.10008,-8.60479],[179.1001,-8.60556],[179.10017,-8.60605],[179.10009,-8.60634],[179.09996,-8.60655],[179.09994,-8.60678],[179.10035,-8.6069],[179.1004,-8.60701],[179.1004,-8.60717],[179.10032,-8.60727],[179.09993,-8.60745],[179.09983,-8.60774],[179.0996,-8.60813],[179.09937,-8.60835],[179.09917,-8.6087],[179.09843,-8.60956],[179.09808,-8.61001],[179.0977,-8.61064],[179.09734,-8.61109]],[[179.10263,-8.63274],[179.10146,-8.63216],[179.1013,-8.63226],[179.10128,-8.63242],[179.10143,-8.63251],[179.10185,-8.63265],[179.1017,-8.63286],[179.10171,-8.63313],[179.10177,-8.63336],[179.10205,-8.6335],[179.10224,-8.63346],[179.1024,-8.63336],[179.10243,-8.63322],[179.10258,-8.63302],[179.10274,-8.63295],[179.10263,-8.63274]],[[179.0996,-8.63209],[179.09941,-8.63175],[179.09913,-8.63161],[179.09861,-8.63171],[179.0983,-8.63158],[179.09813,-8.63159],[179.09825,-8.63176],[179.09846,-8.63192],[179.09889,-8.63205],[179.09903,-8.63218],[179.09904,-8.63235],[179.0985,-8.63317],[179.09777,-8.63394],[179.09709,-8.63451],[179.09631,-8.6349],[179.09617,-8.63487],[179.09602,-8.63495],[179.09579,-8.63498],[179.09566,-8.63505],[179.09553,-8.63523],[179.09532,-8.63523],[179.09514,-8.63531],[179.09505,-8.63545],[179.0949,-8.63546],[179.09483,-8.63551],[179.09482,-8.63557],[179.09459,-8.63563],[179.09407,-8.63603],[179.09351,-8.63622],[179.09308,-8.63649],[179.09233,-8.63707],[179.09219,-8.63715],[179.09184,-8.63722],[179.09173,-8.63729],[179.09171,-8.63737],[179.09161,-8.63737],[179.09152,-8.63745],[179.09152,-8.63762],[179.09143,-8.63774],[179.09102,-8.63777],[179.09058,-8.63831],[179.09048,-8.63838],[179.09033,-8.63839],[179.09018,-8.6385],[179.09008,-8.63868],[179.08966,-8.63901],[179.08942,-8.63904],[179.08919,-8.63888],[179.08916,-8.63894],[179.08934,-8.63929],[179.08949,-8.63938],[179.0898,-8.63931],[179.09334,-8.63701],[179.09508,-8.63608],[179.09594,-8.63568],[179.09725,-8.63516],[179.0986,-8.63471],[179.09987,-8.63444],[179.1009,-8.63416],[179.10099,-8.6341],[179.10103,-8.63384],[179.10082,-8.63328],[179.10073,-8.63324],[179.10066,-8.63332],[179.10053,-8.63326],[179.10028,-8.63347],[179.10003,-8.63336],[179.09979,-8.63285],[179.0996,-8.63209]],[[179.08929,-8.6395],[179.08931,-8.63938],[179.08921,-8.63918],[179.08912,-8.63916],[179.08908,-8.63926],[179.08901,-8.63922],[179.08892,-8.6393],[179.0889,-8.63941],[179.0888,-8.63954],[179.08827,-8.63967],[179.08717,-8.64023],[179.08628,-8.6409],[179.08451,-8.6421],[179.08366,-8.64252],[179.08287,-8.64301],[179.08261,-8.64332],[179.08239,-8.64338],[179.08181,-8.64336],[179.08153,-8.64345],[179.08121,-8.64345],[179.08109,-8.64361],[179.08112,-8.64372],[179.0813,-8.6438],[179.08163,-8.64385],[179.08258,-8.64378],[179.08318,-8.64361],[179.08389,-8.64327],[179.08527,-8.64248],[179.08862,-8.64013],[179.08889,-8.63998],[179.08906,-8.63984],[179.08929,-8.6395]],[[179.08086,-8.6439],[179.08088,-8.64338],[179.08102,-8.64286],[179.08088,-8.64284],[179.08095,-8.64253],[179.08115,-8.6422],[179.08115,-8.64199],[179.08111,-8.6419],[179.08103,-8.64188],[179.08086,-8.64198],[179.08077,-8.64214],[179.08034,-8.64189],[179.08008,-8.64188],[179.08007,-8.64198],[179.08015,-8.64199],[179.08022,-8.64193],[179.08032,-8.64196],[179.0805,-8.64208],[179.08055,-8.64216],[179.08049,-8.64249],[179.08062,-8.64278],[179.08058,-8.64279],[179.08057,-8.64289],[179.08042,-8.643],[179.08037,-8.64299],[179.08034,-8.64269],[179.08022,-8.64244],[179.08021,-8.64226],[179.08006,-8.64234],[179.08001,-8.64231],[179.07952,-8.64229],[179.07934,-8.64256],[179.0794,-8.64265],[179.07983,-8.64282],[179.08028,-8.64318],[179.08056,-8.64381],[179.08063,-8.64388],[179.08086,-8.6439]],[[179.07961,-8.64445],[179.0794,-8.64456],[179.07942,-8.64467],[179.07954,-8.64468],[179.07967,-8.64457],[179.07961,-8.64445]],[[179.07926,-8.62522],[179.07949,-8.62481],[179.07942,-8.62443],[179.07919,-8.62426],[179.07896,-8.62425],[179.07865,-8.62439],[179.07836,-8.62466],[179.07822,-8.62501],[179.07819,-8.62521],[179.07868,-8.62595],[179.07853,-8.62615],[179.07855,-8.62627],[179.07862,-8.62628],[179.07887,-8.62612],[179.07903,-8.62571],[179.07922,-8.62561],[179.07927,-8.62551],[179.07926,-8.62522]],[[179.07874,-8.628],[179.07883,-8.62779],[179.07857,-8.62749],[179.07862,-8.62735],[179.07857,-8.62686],[179.07854,-8.62669],[179.07845,-8.62663],[179.0783,-8.62673],[179.07822,-8.62693],[179.07809,-8.62698],[179.07796,-8.6269],[179.07777,-8.62688],[179.07749,-8.62693],[179.07728,-8.62722],[179.07726,-8.62754],[179.07734,-8.62773],[179.07746,-8.62791],[179.07787,-8.62818],[179.07831,-8.62821],[179.07874,-8.628]],[[179.0753,-8.63255],[179.07512,-8.63259],[179.07504,-8.63271],[179.07506,-8.63294],[179.07529,-8.63312],[179.07531,-8.63334],[179.07526,-8.63349],[179.07516,-8.63349],[179.07504,-8.6336],[179.0751,-8.63401],[179.07494,-8.63414],[179.07475,-8.63419],[179.07467,-8.63415],[179.07454,-8.63423],[179.07443,-8.63442],[179.07405,-8.63482],[179.07365,-8.63558],[179.07385,-8.6362],[179.07367,-8.63648],[179.07362,-8.63677],[179.07339,-8.63711],[179.0732,-8.63781],[179.07333,-8.63833],[179.07354,-8.63877],[179.07351,-8.63925],[179.07356,-8.63973],[179.07374,-8.64032],[179.07403,-8.64094],[179.07421,-8.64119],[179.07475,-8.64136],[179.07485,-8.64136],[179.07503,-8.64118],[179.07512,-8.64101],[179.07511,-8.64085],[179.07525,-8.64051],[179.07535,-8.64042],[179.07559,-8.64005],[179.07576,-8.63991],[179.07597,-8.63956],[179.07607,-8.63885],[179.07583,-8.63845],[179.0756,-8.63837],[179.0754,-8.63835],[179.07529,-8.63824],[179.07492,-8.63764],[179.07469,-8.63639],[179.07551,-8.63501],[179.07543,-8.6347],[179.07545,-8.63447],[179.07535,-8.63429],[179.0752,-8.63417],[179.0752,-8.63399],[179.07557,-8.63346],[179.07605,-8.63313],[179.07605,-8.63275],[179.07594,-8.63262],[179.07584,-8.63257],[179.0753,-8.63255]],[[179.07108,-8.5979],[179.0709,-8.59733],[179.07091,-8.59705],[179.07097,-8.59686],[179.07092,-8.59683],[179.07083,-8.59686],[179.0706,-8.59714],[179.07006,-8.59762],[179.06993,-8.59794],[179.07014,-8.59825],[179.07072,-8.59828],[179.07099,-8.5982],[179.07106,-8.5981],[179.07108,-8.5979]],[[179.0665,-8.57597],[179.06636,-8.57513],[179.06547,-8.57415],[179.06486,-8.57376],[179.06414,-8.57355],[179.06384,-8.57341],[179.06402,-8.57358],[179.06469,-8.5738],[179.06482,-8.57415],[179.06562,-8.57561],[179.06599,-8.57607],[179.06611,-8.57615],[179.0664,-8.57619],[179.06648,-8.57613],[179.0665,-8.57597]],[[179.05099,-8.55856],[179.05096,-8.55848],[179.05078,-8.55844],[179.0505,-8.55862],[179.05042,-8.55878],[179.05042,-8.55896],[179.0505,-8.55929],[179.05071,-8.55935],[179.05084,-8.55931],[179.05102,-8.55917],[179.05105,-8.55905],[179.05095,-8.55888],[179.05094,-8.55874],[179.05099,-8.55856]]],[[[179.07901,-8.44407],[179.07701,-8.44243],[179.07648,-8.44129],[179.07656,-8.43992],[179.07679,-8.43931],[179.07768,-8.43826],[179.08076,-8.43714],[179.08259,-8.43618],[179.08509,-8.43531],[179.08737,-8.43479],[179.08996,-8.43481],[179.09191,-8.43442],[179.09334,-8.43393],[179.09513,-8.43368],[179.09669,-8.43331],[179.09773,-8.43333],[179.09886,-8.4336],[179.09916,-8.43391],[179.09926,-8.43472],[179.09888,-8.43558],[179.09806,-8.43615],[179.09698,-8.43636],[179.09456,-8.43667],[179.09267,-8.43728],[179.0886,-8.43755],[179.08555,-8.43869],[179.08417,-8.43955],[179.08313,-8.44126],[179.08259,-8.44271],[179.08112,-8.44354],[179.07901,-8.44407]],[[179.09438,-8.43521],[179.09393,-8.43587],[179.0938,-8.43593],[179.09378,-8.436],[179.09402,-8.43599],[179.09481,-8.43562],[179.09498,-8.43541],[179.09512,-8.43506],[179.0947,-8.43508],[179.09438,-8.43521]]],[[[179.09254,-8.47247],[179.09249,-8.47357],[179.0921,-8.47425],[179.09153,-8.47438],[179.09059,-8.47394],[179.09015,-8.47347],[179.09018,-8.4729],[179.09057,-8.47243],[179.091,-8.4722],[179.0917,-8.47163],[179.09232,-8.4713],[179.09265,-8.47138],[179.09288,-8.47181],[179.09254,-8.47247]]],[[[179.08752,-8.47755],[179.08692,-8.47714],[179.0864,-8.47622],[179.0855,-8.4755],[179.08515,-8.4755],[179.0845,-8.47575],[179.08361,-8.47555],[179.08314,-8.47496],[179.08335,-8.4744],[179.08335,-8.47363],[179.08296,-8.47278],[179.08564,-8.47289],[179.08778,-8.47336],[179.08813,-8.47384],[179.08887,-8.47552],[179.08873,-8.477],[179.08825,-8.47763],[179.08752,-8.47755]]],[[[179.08766,-8.47027],[179.08775,-8.4707],[179.08744,-8.47122],[179.08702,-8.47156],[179.08599,-8.47164],[179.08525,-8.47147],[179.08481,-8.47124],[179.08474,-8.47089],[179.08483,-8.47069],[179.08616,-8.47007],[179.08646,-8.46968],[179.08688,-8.46954],[179.08707,-8.46951],[179.08736,-8.46972],[179.08766,-8.47027]]],[[[179.07845,-8.45035],[179.07909,-8.45155],[179.07832,-8.45393],[179.0784,-8.45573],[179.07932,-8.45759],[179.08147,-8.45833],[179.08472,-8.45884],[179.08587,-8.45912],[179.08633,-8.4595],[179.08642,-8.46048],[179.08486,-8.46247],[179.084,-8.46474],[179.08359,-8.46558],[179.08183,-8.46717],[179.0816,-8.46818],[179.0817,-8.46904],[179.08156,-8.46958],[179.08121,-8.46972],[179.08064,-8.46938],[179.07987,-8.46825],[179.07801,-8.46635],[179.07671,-8.46384],[179.07396,-8.46124],[179.07253,-8.45832],[179.07181,-8.45623],[179.07177,-8.45447],[179.07156,-8.4531],[179.0717,-8.45214],[179.0717,-8.45151],[179.07201,-8.45076],[179.07348,-8.44932],[179.0746,-8.44885],[179.07599,-8.44893],[179.07727,-8.44942],[179.07845,-8.45035]],[[179.07999,-8.46501],[179.0802,-8.46546],[179.08036,-8.46553],[179.08044,-8.46551],[179.08067,-8.46529],[179.08086,-8.46441],[179.08124,-8.46364],[179.08123,-8.46354],[179.0814,-8.46325],[179.0816,-8.46269],[179.08167,-8.46238],[179.08159,-8.46185],[179.08137,-8.46135],[179.08115,-8.46112],[179.08081,-8.46088],[179.08022,-8.46072],[179.0796,-8.46047],[179.07887,-8.46035],[179.07847,-8.46034],[179.07832,-8.46045],[179.07824,-8.46073],[179.07845,-8.46199],[179.0785,-8.46213],[179.07859,-8.4622],[179.07873,-8.46246],[179.07908,-8.46321],[179.07933,-8.46359],[179.07956,-8.46429],[179.07999,-8.46501]]],[[[179.07491,-8.46837],[179.07552,-8.46935],[179.07571,-8.46992],[179.07574,-8.47047],[179.07547,-8.4708],[179.07502,-8.47099],[179.0741,-8.47059],[179.07336,-8.46993],[179.07275,-8.46916],[179.07274,-8.46872],[179.07292,-8.46833],[179.0732,-8.4681],[179.0736,-8.46797],[179.07395,-8.46794],[179.07453,-8.4681],[179.07491,-8.46837]]],[[[179.07392,-8.47969],[179.07392,-8.48043],[179.07371,-8.48088],[179.07315,-8.48123],[179.07228,-8.48129],[179.07196,-8.48115],[179.07183,-8.48079],[179.07185,-8.48001],[179.0722,-8.47937],[179.07241,-8.47916],[179.07288,-8.47882],[179.07313,-8.47873],[179.07344,-8.47879],[179.0737,-8.47902],[179.07392,-8.47969]]],[[[179.07048,-8.47472],[179.07123,-8.47476],[179.07177,-8.47494],[179.07207,-8.47536],[179.07178,-8.47655],[179.0718,-8.47799],[179.07168,-8.47951],[179.07114,-8.47994],[179.07015,-8.48086],[179.06914,-8.48259],[179.06892,-8.48318],[179.06853,-8.48605],[179.0677,-8.48744],[179.06693,-8.48827],[179.0663,-8.48856],[179.06449,-8.48896],[179.06354,-8.48878],[179.06169,-8.48799],[179.06075,-8.48746],[179.06057,-8.48715],[179.06048,-8.48655],[179.06054,-8.48621],[179.06091,-8.48552],[179.06144,-8.48507],[179.06323,-8.48404],[179.06522,-8.48228],[179.06666,-8.48084],[179.06775,-8.47864],[179.06814,-8.47665],[179.06878,-8.47556],[179.06922,-8.47513],[179.07048,-8.47472]]],[[[179.07021,-8.49693],[179.07005,-8.4972],[179.06957,-8.49714],[179.06872,-8.49561],[179.06855,-8.4945],[179.06864,-8.49425],[179.0688,-8.49413],[179.06921,-8.49421],[179.06964,-8.49455],[179.07002,-8.4959],[179.07021,-8.49693]]],[[[179.06416,-8.54288],[179.06708,-8.54253],[179.06812,-8.54281],[179.06865,-8.54327],[179.06883,-8.5441],[179.06878,-8.54459],[179.06815,-8.54497],[179.06675,-8.54507],[179.06608,-8.54491],[179.0655,-8.54454],[179.06448,-8.54422],[179.06367,-8.54417],[179.06165,-8.54428],[179.06052,-8.54452],[179.06037,-8.54445],[179.06021,-8.5441],[179.06039,-8.54374],[179.06096,-8.54335],[179.06177,-8.54305],[179.06243,-8.54289],[179.06416,-8.54288]]],[[[179.03366,-8.51061],[179.03364,-8.50759],[179.03439,-8.50485],[179.03512,-8.50323],[179.03621,-8.50235],[179.03995,-8.50004],[179.04082,-8.49927],[179.04335,-8.49719],[179.0461,-8.49433],[179.0485,-8.49203],[179.05095,-8.49008],[179.05356,-8.48863],[179.05526,-8.48776],[179.05727,-8.48759],[179.05877,-8.4876],[179.0603,-8.48862],[179.06309,-8.49033],[179.06553,-8.49222],[179.06574,-8.49218],[179.06564,-8.49194],[179.06533,-8.4917],[179.06528,-8.49135],[179.06542,-8.49122],[179.06574,-8.49129],[179.06712,-8.49204],[179.06768,-8.49268],[179.06761,-8.49294],[179.06739,-8.49304],[179.0669,-8.49303],[179.06678,-8.49315],[179.06712,-8.494],[179.06702,-8.49424],[179.06679,-8.49433],[179.06658,-8.49391],[179.06643,-8.49386],[179.06545,-8.49409],[179.0638,-8.49417],[179.06185,-8.49364],[179.06034,-8.49268],[179.05927,-8.49265],[179.05844,-8.49285],[179.05779,-8.49308],[179.05682,-8.49302],[179.05589,-8.49235],[179.05539,-8.49224],[179.05437,-8.49227],[179.05384,-8.49244],[179.05347,-8.49274],[179.05325,-8.49308],[179.05272,-8.49361],[179.05167,-8.49386],[179.05061,-8.4946],[179.04996,-8.49578],[179.04809,-8.49686],[179.04597,-8.4986],[179.04543,-8.49937],[179.04527,-8.50138],[179.04599,-8.50341],[179.04588,-8.50557],[179.04486,-8.50745],[179.04395,-8.50839],[179.0437,-8.5088],[179.04389,-8.5093],[179.04456,-8.51],[179.04508,-8.51132],[179.04444,-8.51343],[179.04432,-8.51535],[179.04418,-8.51621],[179.04582,-8.51806],[179.04687,-8.51971],[179.0475,-8.52016],[179.04831,-8.51989],[179.04889,-8.51989],[179.04913,-8.52009],[179.04927,-8.52059],[179.0489,-8.52134],[179.04895,-8.52164],[179.04954,-8.52219],[179.05002,-8.52222],[179.05078,-8.52171],[179.0514,-8.52144],[179.05235,-8.52197],[179.05324,-8.52296],[179.05364,-8.52368],[179.05389,-8.52516],[179.05348,-8.52609],[179.05225,-8.52742],[179.05211,-8.52886],[179.05171,-8.53089],[179.05119,-8.53168],[179.05035,-8.53179],[179.04966,-8.53167],[179.04923,-8.53123],[179.04878,-8.53034],[179.0483,-8.52871],[179.04743,-8.52624],[179.04676,-8.52458],[179.04447,-8.52133],[179.04253,-8.51822],[179.04017,-8.51641],[179.03621,-8.51404],[179.03407,-8.51182],[179.03366,-8.51061]],[[179.05938,-8.49131],[179.06005,-8.49144],[179.06089,-8.49145],[179.06224,-8.49129],[179.06256,-8.49118],[179.06262,-8.49083],[179.06242,-8.49053],[179.06211,-8.49036],[179.06111,-8.48999],[179.06075,-8.48998],[179.06042,-8.49014],[179.0597,-8.4902],[179.0594,-8.49039],[179.05939,-8.49073],[179.05919,-8.49102],[179.05938,-8.49131]],[[179.03848,-8.51035],[179.03859,-8.51027],[179.03869,-8.51005],[179.03845,-8.50976],[179.03829,-8.50967],[179.03804,-8.5097],[179.03763,-8.50999],[179.03725,-8.51017],[179.03685,-8.5106],[179.0365,-8.51086],[179.03628,-8.51111],[179.03622,-8.51143],[179.03624,-8.51171],[179.03634,-8.51196],[179.03649,-8.51213],[179.03679,-8.51224],[179.03709,-8.51219],[179.03758,-8.51194],[179.03777,-8.51177],[179.03795,-8.51152],[179.03805,-8.51112],[179.038,-8.51095],[179.0379,-8.51085],[179.03761,-8.5108],[179.03768,-8.51056],[179.03772,-8.51052],[179.03795,-8.51051],[179.03848,-8.51035]]],[[[179.05153,-8.53563],[179.0518,-8.53665],[179.05225,-8.53745],[179.05346,-8.5381],[179.0539,-8.53907],[179.05485,-8.54005],[179.05564,-8.54049],[179.05671,-8.54049],[179.0572,-8.54026],[179.05777,-8.5404],[179.05845,-8.54077],[179.0589,-8.54094],[179.05913,-8.54056],[179.05971,-8.54034],[179.05997,-8.54057],[179.06025,-8.54137],[179.06038,-8.54248],[179.06005,-8.54286],[179.0595,-8.54279],[179.05918,-8.54233],[179.05917,-8.5419],[179.05905,-8.54185],[179.05874,-8.54212],[179.05805,-8.54329],[179.05816,-8.54433],[179.05787,-8.54491],[179.05763,-8.5456],[179.05701,-8.54598],[179.05393,-8.54686],[179.0522,-8.54702],[179.05139,-8.54661],[179.04976,-8.54517],[179.04956,-8.54434],[179.04954,-8.54256],[179.04914,-8.54044],[179.04854,-8.53861],[179.04918,-8.53654],[179.04978,-8.53565],[179.05041,-8.53537],[179.05098,-8.53546],[179.05153,-8.53563]]]]}}]}